{"type":"FeatureCollection","features":[{"type":"Feature","properties":{"ref":"A","name":"Lin Soekarno Hatta","colour":"#2E2F70","network":"KAI Commuter","operator":"KAI Commuter","data_as_of":"2026-09-21"},"geometry":{"type":"MultiLineString","coordinates":[[[106.84882,-6.20906],[106.84701,-6.20644],[106.84647,-6.20602],[106.84569,-6.20571],[106.84444,-6.20572],[106.84287,-6.20643],[106.84169,-6.20654],[106.83706,-6.20504],[106.83056,-6.20407],[106.81395,-6.20031],[106.81314,-6.19996],[106.81243,-6.19932],[106.81061,-6.1952],[106.81025,-6.19307],[106.81032,-6.19196],[106.81094,-6.18973],[106.81119,-6.18814],[106.81074,-6.18292],[106.81025,-6.17991],[106.81005,-6.17942],[106.80329,-6.16963],[106.80217,-6.16766],[106.80133,-6.15714],[106.8013,-6.159],[106.80099,-6.15973],[106.80059,-6.1602],[106.79988,-6.16065],[106.79793,-6.16147],[106.7961,-6.16214],[106.79515,-6.16226],[106.7738,-6.16149],[106.76299,-6.15994],[106.75291,-6.15792],[106.74867,-6.15812],[106.73992,-6.1589],[106.7385,-6.15922],[106.73606,-6.16023],[106.73458,-6.16064],[106.71433,-6.16418],[106.66926,-6.17155],[106.66482,-6.17192],[106.6585,-6.17297],[106.65415,-6.17389],[106.65241,-6.17404],[106.65128,-6.1738],[106.65005,-6.17291],[106.6493,-6.17176],[106.64915,-6.17009],[106.64962,-6.16878],[106.65121,-6.16702],[106.65962,-6.15915],[106.6604,-6.15788],[106.6605,-6.15695],[106.66013,-6.15255],[106.66025,-6.14923],[106.66,-6.1479],[106.65951,-6.14678],[106.65865,-6.14571],[106.65747,-6.14485],[106.65342,-6.14294],[106.65237,-6.14267],[106.65118,-6.14262],[106.64948,-6.14302],[106.64166,-6.14621],[106.63856,-6.14826],[106.63787,-6.1485],[106.6367,-6.14859],[106.63531,-6.1482],[106.63403,-6.14715],[106.63336,-6.14597],[106.63316,-6.14458],[106.63363,-6.13649],[106.63401,-6.13562],[106.63464,-6.1348],[106.63597,-6.13388],[106.65182,-6.12757],[106.63595,-6.13384],[106.63514,-6.13428],[106.63396,-6.1356],[106.63359,-6.13647],[106.63317,-6.1424],[106.63314,-6.14531],[106.63355,-6.14657],[106.63455,-6.14777],[106.63546,-6.14834],[106.63629,-6.14858],[106.63749,-6.14861],[106.63858,-6.1483],[106.64168,-6.14624],[106.64949,-6.14306],[106.65117,-6.14266],[106.65304,-6.14286],[106.65696,-6.14465],[106.65824,-6.1454],[106.65946,-6.14679],[106.65995,-6.14791],[106.66017,-6.1489],[106.66006,-6.15255],[106.66045,-6.15695],[106.66036,-6.15786],[106.6596,-6.15911],[106.64981,-6.16839],[106.64926,-6.16942],[106.64908,-6.17036],[106.6492,-6.17151],[106.64955,-6.17235],[106.65035,-6.17328],[106.65126,-6.17384],[106.65228,-6.1741],[106.65415,-6.17393],[106.6643,-6.17205],[106.66756,-6.17185],[106.67121,-6.17128],[106.72646,-6.16216],[106.73539,-6.16049],[106.73852,-6.15928],[106.73998,-6.15894],[106.75211,-6.15794],[106.7537,-6.15802],[106.76304,-6.15999],[106.77379,-6.16151],[106.79568,-6.16226],[106.79771,-6.16163],[106.7999,-6.1607],[106.80062,-6.16025],[106.80104,-6.15976],[106.80141,-6.15844],[106.80127,-6.15456],[106.80198,-6.16672],[106.80214,-6.16767],[106.80254,-6.16856],[106.80981,-6.17911],[106.81022,-6.17993],[106.81113,-6.1883],[106.81023,-6.1923],[106.81021,-6.19307],[106.81058,-6.19521],[106.81239,-6.19935],[106.81313,-6.2],[106.81394,-6.20035],[106.83056,-6.20411],[106.83704,-6.20508],[106.84148,-6.20653],[106.84271,-6.20651],[106.84476,-6.20572],[106.84596,-6.20584],[106.84678,-6.20629],[106.84727,-6.2068],[106.84832,-6.2082],[106.84909,-6.20976],[106.85009,-6.2111]],[[106.80133,-6.15714],[106.80118,-6.15458],[106.80133,-6.15714]]]}},{"type":"Feature","properties":{"ref":"B","name":"Lin Bogor","colour":"#EC2329","network":"KAI Commuter","operator":"KAI Commuter","data_as_of":"2026-09-21"},"geometry":{"type":"MultiLineString","coordinates":[[[106.79079,-6.59429],[106.79117,-6.59125],[106.7934,-6.58332],[106.79341,-6.58202],[106.79282,-6.57751],[106.79319,-6.57534],[106.79401,-6.57364],[106.79512,-6.57228],[106.79957,-6.56927],[106.8008,-6.56802],[106.80221,-6.56521],[106.80284,-6.56299],[106.80279,-6.56143],[106.80012,-6.54935],[106.79952,-6.54486],[106.79959,-6.54235],[106.80128,-6.52384],[106.80121,-6.52251],[106.8008,-6.52104],[106.80027,-6.51998],[106.79956,-6.51901],[106.79741,-6.51675],[106.79672,-6.51527],[106.79659,-6.51403],[106.79682,-6.51136],[106.79584,-6.50648],[106.79499,-6.49561],[106.7952,-6.49087],[106.79601,-6.48783],[106.79711,-6.4859],[106.80153,-6.48046],[106.80233,-6.47867],[106.80269,-6.47725],[106.80281,-6.47605],[106.80274,-6.46968],[106.8008,-6.45881],[106.80079,-6.45684],[106.80099,-6.45516],[106.80207,-6.45022],[106.80305,-6.44673],[106.8082,-6.43581],[106.81424,-6.41841],[106.81805,-6.40067],[106.81893,-6.39787],[106.82358,-6.38686],[106.8248,-6.38507],[106.82648,-6.38323],[106.82822,-6.38059],[106.8323,-6.36844],[106.83252,-6.36695],[106.83251,-6.36577],[106.83168,-6.3594],[106.83167,-6.35697],[106.83371,-6.34179],[106.83536,-6.33488],[106.8355,-6.33368],[106.83544,-6.33264],[106.83509,-6.33117],[106.83377,-6.32801],[106.8337,-6.32705],[106.83385,-6.32589],[106.83432,-6.32471],[106.83612,-6.32194],[106.83692,-6.31976],[106.84002,-6.3018],[106.84066,-6.29604],[106.84143,-6.29356],[106.84386,-6.2876],[106.84446,-6.28563],[106.84608,-6.27659],[106.84646,-6.27517],[106.84701,-6.27354],[106.85789,-6.24919],[106.85859,-6.24706],[106.85875,-6.24568],[106.8584,-6.22418],[106.85792,-6.22158],[106.8567,-6.21925],[106.8489,-6.20926],[106.84321,-6.20113],[106.83359,-6.18824],[106.83302,-6.18718],[106.83255,-6.18553],[106.83177,-6.18004],[106.83043,-6.1759],[106.8298,-6.17286],[106.82982,-6.17138],[106.8305,-6.16838],[106.83035,-6.16574],[106.82974,-6.16427],[106.82808,-6.16178],[106.82754,-6.16002],[106.82733,-6.15186],[106.82665,-6.14786],[106.82582,-6.14579],[106.82293,-6.14098],[106.82178,-6.13744],[106.82123,-6.13673],[106.82015,-6.13633],[106.8172,-6.13696],[106.81483,-6.13778],[106.8172,-6.13696],[106.81962,-6.13637],[106.82041,-6.13636],[106.82123,-6.13673],[106.82178,-6.13744],[106.82293,-6.14098],[106.82582,-6.14579],[106.82642,-6.14715],[106.82733,-6.15186],[106.82754,-6.16002],[106.82808,-6.16178],[106.82974,-6.16427],[106.83035,-6.16574],[106.8305,-6.16838],[106.82982,-6.17138],[106.8298,-6.17286],[106.83043,-6.1759],[106.83177,-6.18004],[106.83255,-6.18553],[106.83302,-6.18718],[106.83359,-6.18824],[106.84321,-6.20113],[106.8489,-6.20926],[106.8567,-6.21925],[106.85792,-6.22158],[106.8584,-6.22418],[106.85875,-6.24568],[106.85859,-6.24706],[106.85789,-6.24919],[106.84701,-6.27354],[106.84646,-6.27517],[106.84608,-6.27659],[106.84446,-6.28563],[106.84386,-6.2876],[106.84143,-6.29356],[106.84066,-6.29604],[106.84002,-6.3018],[106.83692,-6.31976],[106.83612,-6.32194],[106.83432,-6.32471],[106.83385,-6.32589],[106.8337,-6.32705],[106.83377,-6.32801],[106.83509,-6.33117],[106.83544,-6.33264],[106.8355,-6.33368],[106.83536,-6.33488],[106.83371,-6.34179],[106.83167,-6.35697],[106.83168,-6.3594],[106.83251,-6.36577],[106.83252,-6.36695],[106.8323,-6.36844],[106.82822,-6.38059],[106.82648,-6.38323],[106.8248,-6.38507],[106.82358,-6.38686],[106.81867,-6.39861],[106.81783,-6.40163],[106.81424,-6.41841],[106.8082,-6.43581],[106.80318,-6.44642],[106.80273,-6.44765],[106.80121,-6.45404],[106.80098,-6.45598],[106.80117,-6.45714],[106.802,-6.45863],[106.80405,-6.46047],[106.80628,-6.46167],[106.80817,-6.46207],[106.81469,-6.46175],[106.82512,-6.4606],[106.82642,-6.46059],[106.8459,-6.46487],[106.84748,-6.46491],[106.85441,-6.46381],[106.85565,-6.46375],[106.85907,-6.46407],[106.87258,-6.46655],[106.87812,-6.46734],[106.88481,-6.46984],[106.89163,-6.47344],[106.89248,-6.47384],[106.8935,-6.474],[106.89524,-6.47387],[106.89673,-6.4732],[106.90071,-6.46935],[106.90835,-6.4654],[106.90071,-6.46935],[106.89673,-6.4732],[106.89524,-6.47387],[106.8935,-6.474],[106.89248,-6.47384],[106.89163,-6.47344],[106.88481,-6.46984],[106.87812,-6.46734],[106.87258,-6.46655],[106.85907,-6.46407],[106.85565,-6.46375],[106.85441,-6.46381],[106.84748,-6.46491],[106.8459,-6.46487],[106.82642,-6.46059],[106.82512,-6.4606],[106.81469,-6.46175],[106.80817,-6.46207],[106.80628,-6.46167],[106.80405,-6.46047],[106.802,-6.45863],[106.80117,-6.45714],[106.80098,-6.45598],[106.80121,-6.45404],[106.8026,-6.44782],[106.80314,-6.44639],[106.80816,-6.43577],[106.81423,-6.41831],[106.81739,-6.40282],[106.81863,-6.39858],[106.82197,-6.39025],[106.82355,-6.38684],[106.82425,-6.38571],[106.82712,-6.38229],[106.82846,-6.37996],[106.83226,-6.36843],[106.83249,-6.36636],[106.83164,-6.35941],[106.83163,-6.35696],[106.83367,-6.34177],[106.83533,-6.33488],[106.83547,-6.33368],[106.8354,-6.33263],[106.83505,-6.33118],[106.83372,-6.32802],[106.83381,-6.32588],[106.83428,-6.32469],[106.83608,-6.32191],[106.83689,-6.31975],[106.83996,-6.30195],[106.84059,-6.29618],[106.84138,-6.29359],[106.84415,-6.28658],[106.84647,-6.27497],[106.84705,-6.27335],[106.85787,-6.24914],[106.85856,-6.24704],[106.85871,-6.24568],[106.85836,-6.22417],[106.85814,-6.22251],[106.85767,-6.22101],[106.85666,-6.21926],[106.84889,-6.2093],[106.84318,-6.20114],[106.83322,-6.18769],[106.83256,-6.18584],[106.83173,-6.18005],[106.83039,-6.17591],[106.82982,-6.17338],[106.82974,-6.17164],[106.83046,-6.16837],[106.83031,-6.16574],[106.82971,-6.16429],[106.82804,-6.16179],[106.82758,-6.16044],[106.82729,-6.15186],[106.8267,-6.14823],[106.82639,-6.14715],[106.82573,-6.14572],[106.82289,-6.141],[106.82175,-6.13746],[106.82121,-6.13677],[106.82039,-6.13641],[106.81962,-6.1364],[106.81709,-6.13704],[106.81485,-6.13786],[106.81709,-6.13704],[106.81962,-6.1364],[106.82039,-6.13641],[106.82121,-6.13677],[106.82175,-6.13746],[106.82289,-6.141],[106.82573,-6.14572],[106.82639,-6.14715],[106.8267,-6.14823],[106.82729,-6.15186],[106.82758,-6.16044],[106.82804,-6.16179],[106.82971,-6.16429],[106.83031,-6.16574],[106.83046,-6.16837],[106.82974,-6.17164],[106.82982,-6.17338],[106.83039,-6.17591],[106.83173,-6.18005],[106.83256,-6.18584],[106.83322,-6.18769],[106.84318,-6.20114],[106.84889,-6.2093],[106.85666,-6.21926],[106.85767,-6.22101],[106.85814,-6.22251],[106.85836,-6.22417],[106.85871,-6.24568],[106.85856,-6.24704],[106.85787,-6.24914],[106.84705,-6.27335],[106.84647,-6.27497],[106.84415,-6.28658],[106.84138,-6.29359],[106.84059,-6.29618],[106.83996,-6.30195],[106.83689,-6.31975],[106.83608,-6.32191],[106.83428,-6.32469],[106.83381,-6.32588],[106.83372,-6.32802],[106.83505,-6.33118],[106.8354,-6.33263],[106.83547,-6.33368],[106.83533,-6.33488],[106.83367,-6.34177],[106.83163,-6.35696],[106.83164,-6.35941],[106.83249,-6.36636],[106.83226,-6.36843],[106.82818,-6.38058],[106.82712,-6.38229],[106.82425,-6.38571],[106.82355,-6.38684],[106.82197,-6.39025],[106.81889,-6.39785],[106.8175,-6.40231],[106.81423,-6.41831],[106.80816,-6.43577],[106.80282,-6.4472],[106.80099,-6.45489],[106.80074,-6.45684],[106.80075,-6.45883],[106.80269,-6.4698],[106.80277,-6.47607],[106.80264,-6.47728],[106.80206,-6.47925],[106.80129,-6.48074],[106.79707,-6.48587],[106.79609,-6.48755],[106.79567,-6.48862],[106.79509,-6.49121],[106.79492,-6.49529],[106.7956,-6.50271],[106.7958,-6.50648],[106.79678,-6.51136],[106.79655,-6.51403],[106.7967,-6.51529],[106.79739,-6.51678],[106.80007,-6.51973],[106.80077,-6.52105],[106.80118,-6.52251],[106.80117,-6.52482],[106.79958,-6.542],[106.7995,-6.54528],[106.80011,-6.54948],[106.80271,-6.56117],[106.80279,-6.56312],[106.80208,-6.56542],[106.80079,-6.56796],[106.79968,-6.56914],[106.79516,-6.57218],[106.79395,-6.57362],[106.79328,-6.57494],[106.79284,-6.57657],[106.79277,-6.57786],[106.79336,-6.58205],[106.79333,-6.58338],[106.79125,-6.59076],[106.79072,-6.59429]]]}},{"type":"Feature","properties":{"ref":"C","name":"Lin Lingkar Cikarang","colour":"#0000FF","network":"KAI Commuter","operator":"KAI Commuter","data_as_of":"2026-09-21"},"geometry":{"type":"MultiLineString","coordinates":[[[106.82841,-6.13251],[106.82757,-6.13215],[106.82676,-6.13208],[106.82181,-6.13289],[106.82076,-6.13284],[106.81935,-6.13236],[106.81587,-6.13044],[106.81374,-6.12999],[106.80214,-6.13301],[106.80111,-6.13371],[106.80034,-6.13509],[106.80023,-6.13593],[106.80061,-6.14355],[106.80207,-6.16739],[106.80254,-6.16856],[106.81016,-6.17974],[106.811,-6.18595],[106.81113,-6.1883],[106.81023,-6.1923],[106.81042,-6.19463],[106.8122,-6.19907],[106.81284,-6.19979],[106.81365,-6.20026],[106.83056,-6.20411],[106.83704,-6.20508],[106.84168,-6.20657],[106.84288,-6.20647],[106.84476,-6.20572],[106.84596,-6.20584],[106.84678,-6.20629],[106.84727,-6.2068],[106.85258,-6.21372],[106.85321,-6.21424],[106.85398,-6.21452],[106.85524,-6.21447],[106.86146,-6.21187],[106.86238,-6.21169],[106.86376,-6.21204],[106.86658,-6.21452],[106.86733,-6.21491],[106.8681,-6.21506],[106.87194,-6.21508],[106.88693,-6.21418],[106.8903,-6.21334],[106.89168,-6.21317],[106.90534,-6.21345],[106.97453,-6.22176],[106.9759,-6.22218],[106.977,-6.2227],[106.99624,-6.23473],[106.977,-6.2227],[106.9759,-6.22218],[106.97453,-6.22176],[106.90534,-6.21345],[106.89168,-6.21317],[106.8903,-6.21334],[106.88693,-6.21418],[106.87194,-6.21508],[106.8681,-6.21506],[106.86733,-6.21491],[106.86658,-6.21452],[106.86376,-6.21204],[106.86238,-6.21169],[106.86146,-6.21187],[106.85524,-6.21447],[106.85398,-6.21452],[106.85321,-6.21424],[106.85258,-6.21372],[106.84727,-6.2068],[106.84678,-6.20629],[106.84596,-6.20584],[106.84476,-6.20572],[106.84288,-6.20647],[106.84168,-6.20657],[106.83704,-6.20508],[106.83056,-6.20411],[106.81394,-6.20035],[106.81313,-6.2],[106.81239,-6.19935],[106.81206,-6.19879],[106.81042,-6.19463],[106.81023,-6.1923],[106.81113,-6.1883],[106.811,-6.18595],[106.81016,-6.17974],[106.80254,-6.16856],[106.80207,-6.16739],[106.80061,-6.14355],[106.80023,-6.13593],[106.80034,-6.13509],[106.80111,-6.13371],[106.80214,-6.13301],[106.81374,-6.12999],[106.81587,-6.13044],[106.81935,-6.13236],[106.82108,-6.13289],[106.82181,-6.13289],[106.8261,-6.13213],[106.82744,-6.13212],[106.82841,-6.13251],[106.82757,-6.13215],[106.82676,-6.13208],[106.82446,-6.13242],[106.82698,-6.13207],[106.8277,-6.13218],[106.82841,-6.13251],[106.82757,-6.13215],[106.82676,-6.13208],[106.82179,-6.13293],[106.82092,-6.13291],[106.81891,-6.13219],[106.81586,-6.13048],[106.81373,-6.13003],[106.80214,-6.13305],[106.80094,-6.13398],[106.80032,-6.13539],[106.80209,-6.16737],[106.80282,-6.16892],[106.8102,-6.17973],[106.81074,-6.18292],[106.81119,-6.18814],[106.81026,-6.1923],[106.81045,-6.19462],[106.81224,-6.19904],[106.81286,-6.19976],[106.81367,-6.20023],[106.83056,-6.20407],[106.83706,-6.20504],[106.84169,-6.20654],[106.84287,-6.20643],[106.84475,-6.20567],[106.84593,-6.20578],[106.84662,-6.20611],[106.84722,-6.20668],[106.85055,-6.21075],[106.84903,-6.20894],[106.85259,-6.21369],[106.85322,-6.21421],[106.85398,-6.21448],[106.85478,-6.21451],[106.85547,-6.21435],[106.86144,-6.21183],[106.86237,-6.21164],[106.86311,-6.21173],[106.86389,-6.21207],[106.86668,-6.21454],[106.86807,-6.21502],[106.87254,-6.215],[106.88693,-6.21414],[106.89028,-6.2133],[106.89169,-6.21314],[106.90534,-6.21342],[106.97485,-6.2218],[106.97655,-6.22242],[106.97801,-6.22327],[106.99457,-6.23363],[106.99878,-6.23643],[106.99624,-6.23473],[107.00311,-6.23901],[107.00703,-6.24212],[107.01067,-6.24394],[107.03325,-6.25255],[107.07166,-6.26274],[107.07431,-6.263],[107.07724,-6.26284],[107.1384,-6.25328],[107.13981,-6.25329],[107.14112,-6.25356],[107.14575,-6.25558],[107.14112,-6.25356],[107.13981,-6.25329],[107.1384,-6.25328],[107.07724,-6.26284],[107.07431,-6.263],[107.07166,-6.26274],[107.03325,-6.25255],[107.01067,-6.24394],[107.00703,-6.24212],[107.00311,-6.23901],[106.97799,-6.22331],[106.97632,-6.22236],[106.97453,-6.22176],[106.90534,-6.21345],[106.89168,-6.21317],[106.8903,-6.21334],[106.88693,-6.21418],[106.87194,-6.21508],[106.8681,-6.21506],[106.86733,-6.21491],[106.86658,-6.21452],[106.86376,-6.21204],[106.86238,-6.21169],[106.86146,-6.21187],[106.85524,-6.21447],[106.85398,-6.21452],[106.85321,-6.21424],[106.85258,-6.21372],[106.84727,-6.2068],[106.84678,-6.20629],[106.84596,-6.20584],[106.84476,-6.20572],[106.84288,-6.20647],[106.84168,-6.20657],[106.83704,-6.20508],[106.83056,-6.20411],[106.81365,-6.20026],[106.81284,-6.19979],[106.8122,-6.19907],[106.81042,-6.19463],[106.81023,-6.1923],[106.81113,-6.1883],[106.811,-6.18595],[106.81016,-6.17974],[106.80254,-6.16856],[106.80207,-6.16739],[106.80061,-6.14355],[106.80023,-6.13593],[106.80034,-6.13509],[106.80111,-6.13371],[106.80214,-6.13301],[106.81374,-6.12999],[106.81587,-6.13044],[106.81935,-6.13236],[106.82108,-6.13289],[106.82181,-6.13289],[106.82665,-6.132],[106.82749,-6.13202],[106.82954,-6.133],[106.83054,-6.13419],[106.83076,-6.13529],[106.83075,-6.13911],[106.83128,-6.1404],[106.83228,-6.1412],[106.83405,-6.14191],[106.83531,-6.14271],[106.83621,-6.1437],[106.8367,-6.14462],[106.83895,-6.15215],[106.84048,-6.15843],[106.84186,-6.16273],[106.84306,-6.16723],[106.84315,-6.17013],[106.84334,-6.171],[106.84526,-6.1758],[106.84669,-6.18045],[106.85844,-6.19627],[106.85907,-6.19761],[106.86007,-6.20073],[106.86279,-6.21049],[106.86351,-6.21147],[106.86655,-6.21411],[106.86726,-6.21456],[106.86822,-6.21478],[106.87554,-6.21484],[106.88693,-6.21414],[106.89028,-6.2133],[106.89169,-6.21314],[106.90534,-6.21342],[106.97453,-6.22172],[106.97633,-6.22232],[106.97801,-6.22327],[107.00313,-6.23898],[107.00704,-6.24209],[107.0107,-6.24391],[107.03326,-6.25251],[107.07189,-6.26274],[107.07435,-6.26296],[107.07723,-6.2628],[107.13805,-6.25327],[107.13981,-6.25325],[107.14109,-6.25351],[107.14576,-6.25555],[107.14109,-6.25351],[107.13981,-6.25325],[107.13805,-6.25327],[107.07723,-6.2628],[107.07435,-6.26296],[107.07189,-6.26274],[107.03326,-6.25251],[107.0107,-6.24391],[107.00704,-6.24209],[107.00313,-6.23898],[106.97801,-6.22327],[106.97655,-6.22242],[106.97485,-6.2218],[106.90534,-6.21342],[106.89169,-6.21314],[106.89028,-6.2133],[106.88693,-6.21414],[106.87254,-6.215],[106.86807,-6.21502],[106.86668,-6.21454],[106.86389,-6.21207],[106.86311,-6.21173],[106.86237,-6.21164],[106.86144,-6.21183],[106.85547,-6.21435],[106.85478,-6.21451],[106.85398,-6.21448],[106.85322,-6.21421],[106.85259,-6.21369],[106.84722,-6.20668],[106.84662,-6.20611],[106.84593,-6.20578],[106.84475,-6.20567],[106.84287,-6.20643],[106.84169,-6.20654],[106.83706,-6.20504],[106.83056,-6.20407],[106.81367,-6.20023],[106.81286,-6.19976],[106.81224,-6.19904],[106.81045,-6.19462],[106.81026,-6.1923],[106.81119,-6.18814],[106.81074,-6.18292],[106.8102,-6.17973],[106.80282,-6.16892],[106.80209,-6.16737],[106.80032,-6.13539],[106.80094,-6.13398],[106.80214,-6.13305],[106.81373,-6.13003],[106.81586,-6.13048],[106.81891,-6.13219],[106.82092,-6.13291],[106.82179,-6.13293],[106.82668,-6.13203],[106.82752,-6.13207],[106.82964,-6.13312],[106.83051,-6.13419],[106.83069,-6.135],[106.83071,-6.13911],[106.83124,-6.14042],[106.83226,-6.14126],[106.834,-6.14194],[106.83514,-6.14263],[106.83596,-6.14344],[106.83666,-6.14462],[106.83892,-6.15215],[106.84042,-6.15834],[106.84215,-6.16384],[106.84303,-6.16723],[106.84318,-6.17066],[106.84418,-6.1737],[106.84552,-6.17687],[106.84651,-6.18026],[106.85841,-6.19629],[106.85904,-6.19764],[106.86003,-6.20074],[106.86276,-6.2105],[106.86344,-6.21146],[106.86652,-6.21414],[106.86741,-6.21466],[106.86821,-6.21482],[106.87545,-6.21488],[106.88651,-6.21421],[106.88812,-6.21398],[106.8903,-6.21334],[106.89168,-6.21317],[106.90534,-6.21345],[106.97453,-6.22176],[106.97632,-6.22236],[106.97799,-6.22331],[107.00311,-6.23901],[107.00703,-6.24212],[107.01067,-6.24394],[107.03325,-6.25255],[107.0701,-6.2624],[107.07237,-6.26284],[107.07481,-6.263],[107.07724,-6.26284],[107.1384,-6.25328],[107.13981,-6.25329],[107.14112,-6.25356],[107.14575,-6.25558],[107.14112,-6.25356],[107.13981,-6.25329],[107.1384,-6.25328],[107.07724,-6.26284],[107.07431,-6.263],[107.07166,-6.26274],[107.03325,-6.25255],[107.01067,-6.24394],[107.00703,-6.24212],[107.00311,-6.23901],[106.97799,-6.22331],[106.97632,-6.22236],[106.97453,-6.22176],[106.90534,-6.21345],[106.89168,-6.21317],[106.8903,-6.21334],[106.88693,-6.21418],[106.87194,-6.21508],[106.8681,-6.21506],[106.86733,-6.21491],[106.86658,-6.21452],[106.86376,-6.21204],[106.86238,-6.21169],[106.86146,-6.21187],[106.85524,-6.21447],[106.85398,-6.21452],[106.85321,-6.21424],[106.85258,-6.21372],[106.84727,-6.2068],[106.84678,-6.20629],[106.84596,-6.20584],[106.84476,-6.20572],[106.84288,-6.20647],[106.84168,-6.20657],[106.83704,-6.20508],[106.83056,-6.20411],[106.81365,-6.20026],[106.81284,-6.19979],[106.8122,-6.19907],[106.81042,-6.19463],[106.81023,-6.1923],[106.81113,-6.1883],[106.811,-6.18595],[106.81016,-6.17974],[106.80254,-6.16856],[106.80207,-6.16739],[106.80141,-6.15745],[106.80072,-6.14354],[106.80141,-6.15745],[106.80207,-6.16739],[106.80254,-6.16856],[106.81016,-6.17974],[106.811,-6.18595],[106.81113,-6.1883],[106.81023,-6.1923],[106.81042,-6.19463],[106.8122,-6.19907],[106.81265,-6.19963],[106.81341,-6.20016],[106.83056,-6.20411],[106.83704,-6.20508],[106.84168,-6.20657],[106.84288,-6.20647],[106.84476,-6.20572],[106.84596,-6.20584],[106.84678,-6.20629],[106.84727,-6.2068],[106.85258,-6.21372],[106.85321,-6.21424],[106.85398,-6.21452],[106.85524,-6.21447],[106.86146,-6.21187],[106.86238,-6.21169],[106.86376,-6.21204],[106.86658,-6.21452],[106.86733,-6.21491],[106.8681,-6.21506],[106.87194,-6.21508],[106.88693,-6.21418],[106.8903,-6.21334],[106.89168,-6.21317],[106.90534,-6.21345],[106.97453,-6.22176],[106.9759,-6.22218],[106.977,-6.2227],[106.99977,-6.23702],[106.97801,-6.22327],[106.97633,-6.22232],[106.97453,-6.22172],[106.90534,-6.21342],[106.89169,-6.21314],[106.89028,-6.2133],[106.88693,-6.21414],[106.87254,-6.215],[106.86807,-6.21502],[106.86668,-6.21454],[106.86389,-6.21207],[106.86311,-6.21173],[106.86237,-6.21164],[106.86144,-6.21183],[106.85547,-6.21435],[106.85478,-6.21451],[106.85398,-6.21448],[106.85322,-6.21421],[106.85259,-6.21369],[106.84722,-6.20668],[106.84662,-6.20611],[106.84593,-6.20578],[106.84475,-6.20567],[106.84287,-6.20643],[106.84169,-6.20654],[106.83706,-6.20504],[106.83056,-6.20407],[106.81339,-6.20011],[106.81286,-6.19976],[106.81224,-6.19904],[106.81045,-6.19462],[106.81026,-6.1923],[106.81119,-6.18814],[106.81074,-6.18292],[106.8102,-6.17973],[106.80282,-6.16892],[106.80209,-6.16737],[106.80072,-6.14354],[106.80141,-6.15745],[106.80207,-6.16739],[106.80254,-6.16856],[106.81016,-6.17974],[106.811,-6.18595],[106.81113,-6.1883],[106.81023,-6.1923],[106.81042,-6.19463],[106.81206,-6.19879],[106.81239,-6.19935],[106.81313,-6.2],[106.81394,-6.20035],[106.83056,-6.20411],[106.83704,-6.20508],[106.84168,-6.20657],[106.84288,-6.20647],[106.84446,-6.20577],[106.8457,-6.20577],[106.84686,-6.20636],[106.84864,-6.20848],[106.84686,-6.20636],[106.8457,-6.20577],[106.84476,-6.20572],[106.84271,-6.20651],[106.84148,-6.20653],[106.83704,-6.20508],[106.83056,-6.20411],[106.81394,-6.20035],[106.81284,-6.19979],[106.81206,-6.19879],[106.81058,-6.19521],[106.81021,-6.19307],[106.81023,-6.1923],[106.81113,-6.1883],[106.811,-6.18595],[106.81016,-6.17974],[106.80254,-6.16856],[106.80207,-6.16739],[106.80023,-6.13572],[106.8004,-6.1349],[106.80088,-6.13398],[106.80214,-6.13301],[106.81342,-6.13004],[106.81411,-6.13],[106.81587,-6.13044],[106.81935,-6.13236],[106.82076,-6.13284],[106.82181,-6.13289],[106.82446,-6.13242],[106.82179,-6.13293],[106.82056,-6.13283],[106.81891,-6.13219],[106.81586,-6.13048],[106.81373,-6.13003],[106.80214,-6.13305],[106.80138,-6.13353],[106.80076,-6.13423],[106.80039,-6.13505],[106.80026,-6.13593],[106.80209,-6.16737],[106.80282,-6.16892],[106.8102,-6.17973],[106.81074,-6.18292],[106.81119,-6.18814],[106.81026,-6.1923],[106.81045,-6.19462],[106.81224,-6.19904],[106.81286,-6.19976],[106.81367,-6.20023],[106.83056,-6.20407],[106.83706,-6.20504],[106.84169,-6.20654],[106.84287,-6.20643],[106.84475,-6.20567],[106.84593,-6.20578],[106.84662,-6.20611],[106.84722,-6.20668],[106.85259,-6.21369],[106.85322,-6.21421],[106.85398,-6.21448],[106.85478,-6.21451],[106.85547,-6.21435],[106.86144,-6.21183],[106.86237,-6.21164],[106.86311,-6.21173],[106.86389,-6.21207],[106.86668,-6.21454],[106.86807,-6.21502],[106.87254,-6.215],[106.88693,-6.21414],[106.89028,-6.2133],[106.89169,-6.21314],[106.90534,-6.21342],[106.97485,-6.2218],[106.97655,-6.22242],[106.97801,-6.22327],[107.00313,-6.23898],[107.00704,-6.24209],[107.0107,-6.24391],[107.03326,-6.25251],[107.07189,-6.26274],[107.07435,-6.26296],[107.07723,-6.2628],[107.13805,-6.25327],[107.13981,-6.25325],[107.14109,-6.25351],[107.14576,-6.25555],[107.14109,-6.25351],[107.13981,-6.25325],[107.13805,-6.25327],[107.07723,-6.2628],[107.07435,-6.26296],[107.07189,-6.26274],[107.03326,-6.25251],[107.0107,-6.24391],[107.00704,-6.24209],[107.00313,-6.23898],[106.97801,-6.22327],[106.97655,-6.22242],[106.97485,-6.2218],[106.90534,-6.21342],[106.89169,-6.21314],[106.89028,-6.2133],[106.88693,-6.21414],[106.87254,-6.215],[106.86807,-6.21502],[106.86668,-6.21454],[106.86389,-6.21207],[106.86311,-6.21173],[106.86237,-6.21164],[106.86144,-6.21183],[106.85547,-6.21435],[106.85478,-6.21451],[106.85398,-6.21448],[106.85322,-6.21421],[106.85259,-6.21369],[106.84722,-6.20668],[106.84662,-6.20611],[106.84593,-6.20578],[106.84475,-6.20567],[106.84287,-6.20643],[106.84169,-6.20654],[106.83706,-6.20504],[106.83056,-6.20407],[106.81367,-6.20023],[106.81286,-6.19976],[106.81224,-6.19904],[106.81045,-6.19462],[106.81026,-6.1923],[106.81119,-6.18814],[106.81074,-6.18292],[106.8102,-6.17973],[106.80282,-6.16892],[106.80209,-6.16737],[106.80072,-6.14354],[106.80209,-6.16737],[106.80282,-6.16892],[106.8102,-6.17973],[106.81074,-6.18292],[106.81119,-6.18814],[106.81094,-6.18973],[106.81032,-6.19196],[106.81025,-6.19307],[106.81061,-6.1952],[106.81243,-6.19932],[106.81314,-6.19996],[106.81395,-6.20031],[106.83056,-6.20407],[106.83706,-6.20504],[106.84169,-6.20654],[106.84287,-6.20643],[106.84475,-6.20567],[106.84593,-6.20578],[106.84662,-6.20611],[106.84711,-6.20656],[106.85094,-6.2113],[106.84711,-6.20656],[106.84662,-6.20611],[106.84593,-6.20578],[106.84475,-6.20567],[106.84287,-6.20643],[106.84169,-6.20654],[106.83706,-6.20504],[106.83056,-6.20407],[106.81395,-6.20031],[106.81286,-6.19976],[106.8121,-6.19878],[106.81045,-6.19462],[106.81026,-6.1923],[106.81119,-6.18814],[106.81074,-6.18292],[106.8102,-6.17973],[106.80329,-6.16963],[106.80217,-6.16766],[106.80201,-6.16671],[106.80028,-6.13654],[106.80039,-6.13505],[106.80094,-6.13398],[106.8016,-6.13336],[106.80259,-6.1329],[106.81373,-6.13003],[106.81586,-6.13048],[106.81891,-6.13219],[106.82092,-6.13291],[106.82179,-6.13293],[106.82676,-6.13208],[106.82757,-6.13215],[106.82841,-6.13251]]]}},{"type":"Feature","properties":{"ref":"R","name":"Lin Rangkasbitung","colour":"#008000","network":"KAI Commuter","operator":"KAI Commuter","data_as_of":"2026-09-21"},"geometry":{"type":"MultiLineString","coordinates":[[[106.81068,-6.1839],[106.81105,-6.1885],[106.81001,-6.1931],[106.8105,-6.19656],[106.81037,-6.19731],[106.81004,-6.19798],[106.80799,-6.2004],[106.8071,-6.20113],[106.7994,-6.20473],[106.79847,-6.20549],[106.79628,-6.21017],[106.79619,-6.21276],[106.796,-6.21352],[106.7955,-6.21429],[106.79347,-6.2163],[106.79249,-6.21781],[106.7897,-6.22432],[106.78332,-6.23514],[106.78187,-6.23915],[106.78124,-6.2404],[106.7741,-6.24903],[106.77233,-6.25088],[106.76878,-6.25376],[106.76534,-6.25529],[106.76277,-6.2568],[106.76198,-6.25807],[106.76106,-6.26149],[106.75998,-6.263],[106.75683,-6.26524],[106.74832,-6.27384],[106.7355,-6.28412],[106.72696,-6.29017],[106.72596,-6.29064],[106.72354,-6.29108],[106.72238,-6.29154],[106.71945,-6.29399],[106.71847,-6.29443],[106.71533,-6.29533],[106.69992,-6.30419],[106.69074,-6.30833],[106.68127,-6.3115],[106.68007,-6.3122],[106.67789,-6.31389],[106.67248,-6.31701],[106.67176,-6.31764],[106.67045,-6.31935],[106.66915,-6.32005],[106.66841,-6.32018],[106.66068,-6.32022],[106.65954,-6.32059],[106.6566,-6.32238],[106.65547,-6.32274],[106.64431,-6.32336],[106.64345,-6.32356],[106.63978,-6.3254],[106.63867,-6.32576],[106.63071,-6.32612],[106.6299,-6.32648],[106.6286,-6.32756],[106.62795,-6.32789],[106.6255,-6.32845],[106.62026,-6.32922],[106.61705,-6.33046],[106.61584,-6.33108],[106.61301,-6.33328],[106.61147,-6.33392],[106.59065,-6.33853],[106.58269,-6.34215],[106.5818,-6.34282],[106.58056,-6.34411],[106.57943,-6.3447],[106.57816,-6.34484],[106.56489,-6.34405],[106.56286,-6.34424],[106.56111,-6.34482],[106.54813,-6.351],[106.54678,-6.35131],[106.54474,-6.35115],[106.5435,-6.3514],[106.53935,-6.35431],[106.53847,-6.35473],[106.53751,-6.3549],[106.53454,-6.35487],[106.52943,-6.35674],[106.52799,-6.35705],[106.52647,-6.35689],[106.5243,-6.35592],[106.52337,-6.35566],[106.52226,-6.35566],[106.52064,-6.35599],[106.52008,-6.35589],[106.5195,-6.3556],[106.51814,-6.35435],[106.51695,-6.35394],[106.51466,-6.35415],[106.51229,-6.35528],[106.51144,-6.35528],[106.51082,-6.35504],[106.50843,-6.35342],[106.50673,-6.3505],[106.50192,-6.3458],[106.50069,-6.34504],[106.49575,-6.34262],[106.49482,-6.34192],[106.49402,-6.3409],[106.49097,-6.33492],[106.49042,-6.3343],[106.48969,-6.33383],[106.489,-6.33361],[106.48808,-6.33356],[106.48522,-6.33441],[106.4833,-6.33433],[106.4753,-6.33146],[106.47189,-6.3298],[106.46418,-6.3285],[106.46031,-6.32669],[106.45946,-6.32649],[106.45297,-6.32692],[106.4403,-6.32685],[106.43917,-6.32699],[106.43773,-6.32739],[106.42007,-6.33452],[106.41859,-6.33484],[106.40682,-6.33637],[106.40517,-6.33611],[106.3896,-6.32975],[106.38841,-6.32968],[106.37636,-6.33071],[106.37054,-6.33235],[106.36503,-6.33259],[106.36328,-6.33221],[106.35911,-6.32953],[106.35793,-6.3292],[106.35682,-6.32915],[106.3552,-6.32961],[106.34711,-6.33304],[106.34509,-6.33356],[106.32653,-6.33577],[106.32506,-6.33578],[106.32073,-6.33526],[106.31893,-6.33519],[106.3173,-6.3354],[106.31471,-6.3362],[106.31075,-6.33642],[106.30977,-6.33684],[106.30737,-6.33851],[106.30067,-6.34099],[106.29964,-6.34123],[106.28787,-6.34021],[106.28468,-6.34098],[106.28068,-6.34105],[106.27493,-6.34246],[106.27068,-6.34262],[106.26952,-6.34318],[106.26881,-6.3441],[106.26857,-6.34492],[106.26876,-6.34705],[106.26864,-6.34795],[106.26794,-6.34929],[106.26708,-6.35005],[106.26062,-6.35314],[106.25948,-6.35353],[106.2578,-6.35365],[106.25514,-6.35313],[106.25313,-6.35308]],[[106.25067,-6.35271],[106.25481,-6.35305],[106.25768,-6.35359],[106.2588,-6.35358],[106.26026,-6.3532],[106.26669,-6.35016],[106.26773,-6.34939],[106.2685,-6.34815],[106.26871,-6.34705],[106.26853,-6.34491],[106.26875,-6.34409],[106.26949,-6.34313],[106.27065,-6.34255],[106.27493,-6.34243],[106.28067,-6.34101],[106.28466,-6.34094],[106.28787,-6.34017],[106.29963,-6.34115],[106.30064,-6.34094],[106.3073,-6.33845],[106.31005,-6.33662],[106.31075,-6.33637],[106.31471,-6.33614],[106.31729,-6.33535],[106.31893,-6.33512],[106.32507,-6.33573],[106.32654,-6.33571],[106.34508,-6.33352],[106.34709,-6.33301],[106.35519,-6.32957],[106.35683,-6.32912],[106.35793,-6.32914],[106.35913,-6.32946],[106.36332,-6.33214],[106.36454,-6.33247],[106.3656,-6.33253],[106.37015,-6.33235],[106.37635,-6.33066],[106.38841,-6.32962],[106.38962,-6.32969],[106.4052,-6.33604],[106.40616,-6.33628],[106.40717,-6.33631],[106.41842,-6.33483],[106.42008,-6.33449],[106.43774,-6.32735],[106.43919,-6.32694],[106.44058,-6.32681],[106.45298,-6.32688],[106.45923,-6.32644],[106.46032,-6.32665],[106.46408,-6.32843],[106.47179,-6.32972],[106.47535,-6.33143],[106.48331,-6.33428],[106.48515,-6.33438],[106.48824,-6.33349],[106.48971,-6.33378],[106.49045,-6.33427],[106.49109,-6.33504],[106.49406,-6.3409],[106.49479,-6.34185],[106.49579,-6.3426],[106.50105,-6.34518],[106.50215,-6.34593],[106.50672,-6.35044],[106.50847,-6.35341],[106.51053,-6.35482],[106.51135,-6.35522],[106.51215,-6.35526],[106.51478,-6.35406],[106.51714,-6.3539],[106.51829,-6.35437],[106.51953,-6.35553],[106.52012,-6.35585],[106.52094,-6.3559],[106.52245,-6.35558],[106.52351,-6.35563],[106.52648,-6.35685],[106.52819,-6.35699],[106.52963,-6.35661],[106.53446,-6.35485],[106.53742,-6.35487],[106.53855,-6.35466],[106.53944,-6.35419],[106.54345,-6.35139],[106.54431,-6.35115],[106.5464,-6.35126],[106.54786,-6.35105],[106.56117,-6.34475],[106.5629,-6.34419],[106.56509,-6.34403],[106.57791,-6.34479],[106.57924,-6.3447],[106.58049,-6.34409],[106.5818,-6.34271],[106.58251,-6.3422],[106.59063,-6.3385],[106.61143,-6.3339],[106.61301,-6.33324],[106.61596,-6.33095],[106.61685,-6.3305],[106.62018,-6.32921],[106.62518,-6.32847],[106.62794,-6.32785],[106.62857,-6.32754],[106.6298,-6.3265],[106.63071,-6.32608],[106.63876,-6.32571],[106.63973,-6.32539],[106.64309,-6.32369],[106.644,-6.32337],[106.65527,-6.32274],[106.65696,-6.32217],[106.65952,-6.32056],[106.66063,-6.3202],[106.66842,-6.32013],[106.66915,-6.32001],[106.67041,-6.3193],[106.67171,-6.31759],[106.67247,-6.31694],[106.67787,-6.31386],[106.68003,-6.31216],[106.68125,-6.31145],[106.69073,-6.30829],[106.70007,-6.30404],[106.71531,-6.29531],[106.71642,-6.29488],[106.71846,-6.2944],[106.7194,-6.29398],[106.72235,-6.29152],[106.72352,-6.29104],[106.72586,-6.29063],[106.72692,-6.29014],[106.73541,-6.28414],[106.74822,-6.27389],[106.75683,-6.26521],[106.76,-6.26295],[106.76102,-6.26148],[106.76194,-6.25806],[106.76275,-6.25677],[106.76522,-6.2553],[106.76857,-6.25383],[106.77193,-6.25118],[106.77389,-6.24916],[106.78118,-6.24043],[106.78184,-6.23914],[106.78327,-6.23514],[106.78963,-6.22434],[106.79248,-6.2177],[106.79363,-6.21604],[106.79547,-6.21426],[106.79596,-6.21351],[106.79616,-6.21254],[106.7961,-6.21087],[106.79623,-6.21017],[106.79845,-6.20546],[106.79939,-6.2047],[106.80708,-6.2011],[106.80795,-6.20039],[106.81002,-6.19792],[106.81045,-6.19655],[106.80997,-6.19309],[106.81097,-6.18882],[106.81079,-6.18653]]]}},{"type":"Feature","properties":{"ref":"T","name":"Lin Tangerang","colour":"#A52A2A","network":"KAI Commuter","operator":"KAI Commuter","data_as_of":"2026-09-21"},"geometry":{"type":"MultiLineString","coordinates":[[[106.80115,-6.15435],[106.80136,-6.15843],[106.80099,-6.15973],[106.80059,-6.1602],[106.79988,-6.16065],[106.79569,-6.1622],[106.7738,-6.16149],[106.76299,-6.15994],[106.75354,-6.15796],[106.75211,-6.1579],[106.74867,-6.15812],[106.73992,-6.1589],[106.7385,-6.15922],[106.73538,-6.16046],[106.72747,-6.16194],[106.68568,-6.16891],[106.64926,-6.17475],[106.63601,-6.17682],[106.63401,-6.17695],[106.63045,-6.1768]],[[106.63045,-6.17684],[106.63439,-6.17699],[106.6363,-6.17682],[106.68567,-6.16895],[106.71431,-6.16422],[106.7333,-6.16092],[106.73539,-6.16049],[106.73915,-6.15909],[106.74079,-6.15886],[106.75211,-6.15794],[106.75354,-6.158],[106.76299,-6.15998],[106.77379,-6.16151],[106.79568,-6.16226],[106.79771,-6.16163],[106.7999,-6.1607],[106.80062,-6.16025],[106.80104,-6.15976],[106.80141,-6.15844],[106.80118,-6.15458]]]}},{"type":"Feature","properties":{"ref":"TP","name":"Tanjung Priuk Line","colour":"#FFC0CB","network":"KAI Commuter","operator":"KAI Commuter","data_as_of":"2026-09-21"},"geometry":{"type":"MultiLineString","coordinates":[[[106.8148,-6.13767],[106.82047,-6.13601],[106.82276,-6.13467],[106.82888,-6.13284],[106.83135,-6.13186],[106.8351,-6.13004],[106.83606,-6.12975],[106.85139,-6.12693],[106.85261,-6.12655],[106.85776,-6.12421],[106.86178,-6.12267],[106.86696,-6.12149],[106.86896,-6.1203],[106.88151,-6.11056],[106.86893,-6.12027],[106.86779,-6.12106],[106.86677,-6.12152],[106.86175,-6.12265],[106.85775,-6.12418],[106.8526,-6.12652],[106.85137,-6.1269],[106.83605,-6.12972],[106.83509,-6.13001],[106.83133,-6.13182],[106.82828,-6.13301],[106.82275,-6.13464],[106.82022,-6.13606],[106.81699,-6.13689],[106.81479,-6.13763]]]}},{"type":"Feature","properties":{"name":"Ancol","network":"KAI Commuter","lines":["TP"]},"geometry":{"type":"Point","coordinates":[106.84646,-6.12785]}},{"type":"Feature","properties":{"name":"Angke","network":"KAI Commuter","lines":["C"]},"geometry":{"type":"Point","coordinates":[106.80069,-6.14354]}},{"type":"Feature","properties":{"name":"Bandara Soekarno 2","network":"KAI Commuter","lines":["A"]},"geometry":{"type":"Point","coordinates":[106.65104,-6.12788]}},{"type":"Feature","properties":{"name":"Batu Ceper","network":"KAI Commuter","lines":["A","T"]},"geometry":{"type":"Point","coordinates":[106.66394,-6.17241]}},{"type":"Feature","properties":{"name":"Bekasi","network":"KAI Commuter","lines":["C"]},"geometry":{"type":"Point","coordinates":[106.99713,-6.23524]}},{"type":"Feature","properties":{"name":"Bekasi Timur","network":"KAI Commuter","lines":["C"]},"geometry":{"type":"Point","coordinates":[107.01698,-6.24632]}},{"type":"Feature","properties":{"name":"BNI City","network":"KAI Commuter","lines":["A","C"]},"geometry":{"type":"Point","coordinates":[106.81868,-6.20135]}},{"type":"Feature","properties":{"name":"Bogor","network":"KAI Commuter","lines":["B"]},"geometry":{"type":"Point","coordinates":[106.79079,-6.59429]}},{"type":"Feature","properties":{"name":"Bojong Indah","network":"KAI Commuter","lines":["T"]},"geometry":{"type":"Point","coordinates":[106.73503,-6.16054]}},{"type":"Feature","properties":{"name":"Bojonggede","network":"KAI Commuter","lines":["B"]},"geometry":{"type":"Point","coordinates":[106.7951,-6.49196]}},{"type":"Feature","properties":{"name":"Buaran","network":"KAI Commuter","lines":["C"]},"geometry":{"type":"Point","coordinates":[106.9214,-6.21533]}},{"type":"Feature","properties":{"name":"Cakung","network":"KAI Commuter","lines":["C"]},"geometry":{"type":"Point","coordinates":[106.95206,-6.21909]}},{"type":"Feature","properties":{"name":"Cawang","network":"KAI Commuter","lines":["B"]},"geometry":{"type":"Point","coordinates":[106.85867,-6.24097]}},{"type":"Feature","properties":{"name":"Cibinong","network":"KAI Commuter","lines":["B"]},"geometry":{"type":"Point","coordinates":[106.85204,-6.46419]}},{"type":"Feature","properties":{"name":"Cibitung","network":"KAI Commuter","lines":["C"]},"geometry":{"type":"Point","coordinates":[107.08324,-6.26186]}},{"type":"Feature","properties":{"name":"Cicayur","network":"KAI Commuter","lines":["R"]},"geometry":{"type":"Point","coordinates":[106.62019,-6.32923]}},{"type":"Feature","properties":{"name":"Cikarang","network":"KAI Commuter","lines":["C"]},"geometry":{"type":"Point","coordinates":[107.14576,-6.25555]}},{"type":"Feature","properties":{"name":"Cikini","network":"KAI Commuter","lines":["B"]},"geometry":{"type":"Point","coordinates":[106.84043,-6.19742]}},{"type":"Feature","properties":{"name":"Cilebut","network":"KAI Commuter","lines":["B"]},"geometry":{"type":"Point","coordinates":[106.80077,-6.52989]}},{"type":"Feature","properties":{"name":"Cilejit","network":"KAI Commuter","lines":["R"]},"geometry":{"type":"Point","coordinates":[106.5105,-6.35484]}},{"type":"Feature","properties":{"name":"Cisauk","network":"KAI Commuter","lines":["R"]},"geometry":{"type":"Point","coordinates":[106.64246,-6.32403]}},{"type":"Feature","properties":{"name":"Citayam","network":"KAI Commuter","lines":["B"]},"geometry":{"type":"Point","coordinates":[106.80261,-6.44801]}},{"type":"Feature","properties":{"name":"Citeras","network":"KAI Commuter","lines":["R"]},"geometry":{"type":"Point","coordinates":[106.33393,-6.33489]}},{"type":"Feature","properties":{"name":"Daru","network":"KAI Commuter","lines":["R"]},"geometry":{"type":"Point","coordinates":[106.49296,-6.3388]}},{"type":"Feature","properties":{"name":"Depok","network":"KAI Commuter","lines":["B"]},"geometry":{"type":"Point","coordinates":[106.81762,-6.40284]}},{"type":"Feature","properties":{"name":"Depok Baru","network":"KAI Commuter","lines":["B"]},"geometry":{"type":"Point","coordinates":[106.82206,-6.39037]}},{"type":"Feature","properties":{"name":"Duren Kalibata","network":"KAI Commuter","lines":["B"]},"geometry":{"type":"Point","coordinates":[106.85598,-6.25341]}},{"type":"Feature","properties":{"name":"Duri","network":"KAI Commuter","lines":["A","C","T"]},"geometry":{"type":"Point","coordinates":[106.80136,-6.15444]}},{"type":"Feature","properties":{"name":"Gang Sentiong","network":"KAI Commuter","lines":["C"]},"geometry":{"type":"Point","coordinates":[106.85105,-6.18642]}},{"type":"Feature","properties":{"name":"Gondangdia","network":"KAI Commuter","lines":["B"]},"geometry":{"type":"Point","coordinates":[106.83242,-6.18456]}},{"type":"Feature","properties":{"name":"Grogol","network":"KAI Commuter","lines":["T"]},"geometry":{"type":"Point","coordinates":[106.78727,-6.162]}},{"type":"Feature","properties":{"name":"Jakarta International Stadium","network":"KAI Commuter","lines":["TP"]},"geometry":{"type":"Point","coordinates":[106.86105,-6.12292]}},{"type":"Feature","properties":{"name":"Jakarta Kota","network":"KAI Commuter","lines":["B","TP"]},"geometry":{"type":"Point","coordinates":[106.81611,-6.1374]}},{"type":"Feature","properties":{"name":"Jatake","network":"KAI Commuter","lines":["R"]},"geometry":{"type":"Point","coordinates":[106.60774,-6.33476]}},{"type":"Feature","properties":{"name":"Jatinegara","network":"KAI Commuter","lines":["C"]},"geometry":{"type":"Point","coordinates":[106.86928,-6.21501]}},{"type":"Feature","properties":{"name":"Jayakarta","network":"KAI Commuter","lines":["B"]},"geometry":{"type":"Point","coordinates":[106.82281,-6.14073]}},{"type":"Feature","properties":{"name":"Juanda","network":"KAI Commuter","lines":["B"]},"geometry":{"type":"Point","coordinates":[106.83016,-6.16515]}},{"type":"Feature","properties":{"name":"Jurangmangu","network":"KAI Commuter","lines":["R"]},"geometry":{"type":"Point","coordinates":[106.72926,-6.28853]}},{"type":"Feature","properties":{"name":"Kalideres","network":"KAI Commuter","lines":["T"]},"geometry":{"type":"Point","coordinates":[106.70251,-6.16615]}},{"type":"Feature","properties":{"name":"Kampung Bandan","network":"KAI Commuter","lines":["C","TP"]},"geometry":{"type":"Point","coordinates":[106.82893,-6.1327]}},{"type":"Feature","properties":{"name":"Kebayoran","network":"KAI Commuter","lines":["R"]},"geometry":{"type":"Point","coordinates":[106.78296,-6.23599]}},{"type":"Feature","properties":{"name":"Kemayoran","network":"KAI Commuter","lines":["C"]},"geometry":{"type":"Point","coordinates":[106.84174,-6.16255]}},{"type":"Feature","properties":{"name":"Klender","network":"KAI Commuter","lines":["C"]},"geometry":{"type":"Point","coordinates":[106.89865,-6.21324]}},{"type":"Feature","properties":{"name":"Klender Baru","network":"KAI Commuter","lines":["C"]},"geometry":{"type":"Point","coordinates":[106.93926,-6.21749]}},{"type":"Feature","properties":{"name":"Kramat","network":"KAI Commuter","lines":["C"]},"geometry":{"type":"Point","coordinates":[106.85679,-6.19405]}},{"type":"Feature","properties":{"name":"Kranji","network":"KAI Commuter","lines":["C"]},"geometry":{"type":"Point","coordinates":[106.97889,-6.22383]}},{"type":"Feature","properties":{"name":"Lenteng Agung","network":"KAI Commuter","lines":["B"]},"geometry":{"type":"Point","coordinates":[106.83416,-6.32921]}},{"type":"Feature","properties":{"name":"Maja","network":"KAI Commuter","lines":["R"]},"geometry":{"type":"Point","coordinates":[106.39692,-6.33269]}},{"type":"Feature","properties":{"name":"Mangga Besar","network":"KAI Commuter","lines":["B"]},"geometry":{"type":"Point","coordinates":[106.82685,-6.14882]}},{"type":"Feature","properties":{"name":"Manggarai","network":"KAI Commuter","lines":["A","B","C"]},"geometry":{"type":"Point","coordinates":[106.84944,-6.20947]}},{"type":"Feature","properties":{"name":"Matraman","network":"KAI Commuter","lines":["C"]},"geometry":{"type":"Point","coordinates":[106.85891,-6.21289]}},{"type":"Feature","properties":{"name":"Metland Telagamurni","network":"KAI Commuter","lines":["C"]},"geometry":{"type":"Point","coordinates":[107.11024,-6.25761]}},{"type":"Feature","properties":{"name":"Nambo","network":"KAI Commuter","lines":["B"]},"geometry":{"type":"Point","coordinates":[106.90552,-6.46682]}},{"type":"Feature","properties":{"name":"Palmerah","network":"KAI Commuter","lines":["R"]},"geometry":{"type":"Point","coordinates":[106.79805,-6.20622]}},{"type":"Feature","properties":{"name":"Parungpanjang","network":"KAI Commuter","lines":["R"]},"geometry":{"type":"Point","coordinates":[106.5703,-6.34439]}},{"type":"Feature","properties":{"name":"Pasar Minggu","network":"KAI Commuter","lines":["B"]},"geometry":{"type":"Point","coordinates":[106.84519,-6.2815]}},{"type":"Feature","properties":{"name":"Pasar Minggu Baru","network":"KAI Commuter","lines":["B"]},"geometry":{"type":"Point","coordinates":[106.85198,-6.2624]}},{"type":"Feature","properties":{"name":"Pasar Senen","network":"KAI Commuter","lines":["C"]},"geometry":{"type":"Point","coordinates":[106.8441,-6.17276]}},{"type":"Feature","properties":{"name":"Pesing","network":"KAI Commuter","lines":["T"]},"geometry":{"type":"Point","coordinates":[106.77159,-6.16119]}},{"type":"Feature","properties":{"name":"Pondok Cina","network":"KAI Commuter","lines":["B"]},"geometry":{"type":"Point","coordinates":[106.83163,-6.37051]}},{"type":"Feature","properties":{"name":"Pondok Jati","network":"KAI Commuter","lines":["C"]},"geometry":{"type":"Point","coordinates":[106.86276,-6.2105]}},{"type":"Feature","properties":{"name":"Pondok Ranji","network":"KAI Commuter","lines":["R"]},"geometry":{"type":"Point","coordinates":[106.74521,-6.27633]}},{"type":"Feature","properties":{"name":"Poris","network":"KAI Commuter","lines":["T"]},"geometry":{"type":"Point","coordinates":[106.68027,-6.16979]}},{"type":"Feature","properties":{"name":"Rajawali","network":"KAI Commuter","lines":["C"]},"geometry":{"type":"Point","coordinates":[106.83718,-6.14631]}},{"type":"Feature","properties":{"name":"Rangkasbitung","network":"KAI Commuter","lines":["R"]},"geometry":{"type":"Point","coordinates":[106.25313,-6.35308]}},{"type":"Feature","properties":{"name":"Rawa Buaya","network":"KAI Commuter","lines":["A","T"]},"geometry":{"type":"Point","coordinates":[106.72278,-6.16276]}},{"type":"Feature","properties":{"name":"Rawa Buntu","network":"KAI Commuter","lines":["R"]},"geometry":{"type":"Point","coordinates":[106.67678,-6.31455]}},{"type":"Feature","properties":{"name":"Sawah Besar","network":"KAI Commuter","lines":["B"]},"geometry":{"type":"Point","coordinates":[106.8275,-6.15944]}},{"type":"Feature","properties":{"name":"Serpong","network":"KAI Commuter","lines":["R"]},"geometry":{"type":"Point","coordinates":[106.66663,-6.32018]}},{"type":"Feature","properties":{"name":"Sudimara","network":"KAI Commuter","lines":["R"]},"geometry":{"type":"Point","coordinates":[106.71374,-6.29625]}},{"type":"Feature","properties":{"name":"Sudirman","network":"KAI Commuter","lines":["A","C"]},"geometry":{"type":"Point","coordinates":[106.82434,-6.2026]}},{"type":"Feature","properties":{"name":"Taman Kota","network":"KAI Commuter","lines":["T"]},"geometry":{"type":"Point","coordinates":[106.75456,-6.15818]}},{"type":"Feature","properties":{"name":"Tambun","network":"KAI Commuter","lines":["C"]},"geometry":{"type":"Point","coordinates":[107.05438,-6.25813]}},{"type":"Feature","properties":{"name":"Tanah Abang","network":"KAI Commuter","lines":["C","R"]},"geometry":{"type":"Point","coordinates":[106.81065,-6.18259]}},{"type":"Feature","properties":{"name":"Tanah Tinggi","network":"KAI Commuter","lines":["T"]},"geometry":{"type":"Point","coordinates":[106.64573,-6.1753]}},{"type":"Feature","properties":{"name":"Tangerang","network":"KAI Commuter","lines":["T"]},"geometry":{"type":"Point","coordinates":[106.63072,-6.17681]}},{"type":"Feature","properties":{"name":"Tanjung Barat","network":"KAI Commuter","lines":["B"]},"geometry":{"type":"Point","coordinates":[106.83902,-6.30771]}},{"type":"Feature","properties":{"name":"Tanjung Priuk","network":"KAI Commuter","lines":["TP"]},"geometry":{"type":"Point","coordinates":[106.88145,-6.1106]}},{"type":"Feature","properties":{"name":"Tebet","network":"KAI Commuter","lines":["B"]},"geometry":{"type":"Point","coordinates":[106.85843,-6.22593]}},{"type":"Feature","properties":{"name":"Tenjo","network":"KAI Commuter","lines":["R"]},"geometry":{"type":"Point","coordinates":[106.46204,-6.32753]}},{"type":"Feature","properties":{"name":"Tigaraksa","network":"KAI Commuter","lines":["R"]},"geometry":{"type":"Point","coordinates":[106.43509,-6.32845]}},{"type":"Feature","properties":{"name":"Universitas Indonesia","network":"KAI Commuter","lines":["B"]},"geometry":{"type":"Point","coordinates":[106.83163,-6.3588]}},{"type":"Feature","properties":{"name":"Universitas Pancasila","network":"KAI Commuter","lines":["B"]},"geometry":{"type":"Point","coordinates":[106.83434,-6.33908]}}],"properties":{"data_as_of":"2026-09-21","source":["https://www.openstreetmap.org/copyright"]}}
