{"type":"FeatureCollection","features":[{"type":"Feature","properties":{"ref":"BK","name":"Jabodebek LRT Bekasi Line","colour":"#0E6938","network":"Jabodebek LRT","operator":"PT Kereta Api Indonesia Divisi LRT Jabodebek","data_as_of":"2026-09-21"},"geometry":{"type":"MultiLineString","coordinates":[[[106.82552,-6.20485],[106.82792,-6.20531],[106.82837,-6.20553],[106.82932,-6.20692],[106.83003,-6.20857],[106.83037,-6.21048],[106.83069,-6.21644],[106.83102,-6.21805],[106.83203,-6.22087],[106.83277,-6.22385],[106.83322,-6.22935],[106.83319,-6.23004],[106.83288,-6.23113],[106.83216,-6.23249],[106.83086,-6.23377],[106.82842,-6.23514],[106.82752,-6.23632],[106.8274,-6.23707],[106.82795,-6.23778],[106.83198,-6.24017],[106.83334,-6.24081],[106.84124,-6.2429],[106.84347,-6.24367],[106.84631,-6.2438],[106.85228,-6.24345],[106.85926,-6.24353],[106.86272,-6.24339],[106.86452,-6.24355],[106.86671,-6.24417],[106.87038,-6.24569],[106.87367,-6.24658],[106.87622,-6.24863],[106.87677,-6.24881],[106.87755,-6.24855],[106.87902,-6.24752],[106.87978,-6.24719],[106.88376,-6.24729],[106.88545,-6.24695],[106.88651,-6.2464],[106.88946,-6.24438],[106.8905,-6.24393],[106.89233,-6.24363],[106.89391,-6.24376],[106.89586,-6.24448],[106.8978,-6.24588],[106.89949,-6.24804],[106.90183,-6.25188],[106.90305,-6.25316],[106.90414,-6.25398],[106.90544,-6.25468],[106.90765,-6.2554],[106.91259,-6.25745],[106.91468,-6.258],[106.91588,-6.25815],[106.92145,-6.25812],[106.94035,-6.25713],[106.94332,-6.25669],[106.94631,-6.25687],[106.95268,-6.25657],[106.95605,-6.25619],[106.9592,-6.25551],[106.96163,-6.25526],[106.96502,-6.25396],[106.97135,-6.25016],[106.97412,-6.24904],[106.9771,-6.24852],[106.98012,-6.24859],[106.98308,-6.24943],[106.99078,-6.25313],[107.02167,-6.26413]],[[107.02167,-6.26409],[106.99438,-6.25446],[106.98965,-6.25258],[106.98309,-6.2494],[106.9813,-6.24879],[106.97981,-6.24851],[106.97623,-6.24856],[106.97323,-6.24929],[106.97068,-6.25049],[106.96792,-6.25229],[106.96502,-6.25392],[106.96162,-6.25521],[106.95947,-6.25542],[106.95601,-6.25615],[106.95188,-6.25658],[106.9463,-6.25683],[106.94333,-6.25664],[106.94035,-6.25708],[106.92086,-6.2581],[106.91596,-6.25811],[106.91479,-6.25797],[106.91259,-6.2574],[106.90856,-6.25568],[106.90544,-6.25463],[106.90415,-6.25393],[106.90307,-6.25312],[106.90185,-6.25185],[106.89952,-6.24803],[106.89782,-6.24587],[106.89586,-6.24445],[106.89391,-6.24373],[106.89232,-6.2436],[106.8905,-6.2439],[106.88943,-6.24436],[106.88707,-6.246],[106.88542,-6.2469],[106.88374,-6.24724],[106.87977,-6.24715],[106.87899,-6.24748],[106.87751,-6.24853],[106.87676,-6.24876],[106.87624,-6.24859],[106.87376,-6.24656],[106.8703,-6.24563],[106.86673,-6.24413],[106.86454,-6.24351],[106.86271,-6.24334],[106.85928,-6.24349],[106.85228,-6.24341],[106.84631,-6.24377],[106.84348,-6.24363],[106.84125,-6.24287],[106.83335,-6.24077],[106.832,-6.24013],[106.82797,-6.23774],[106.82745,-6.23705],[106.82756,-6.23634],[106.82845,-6.23518],[106.83089,-6.23381],[106.8322,-6.23252],[106.83299,-6.23092],[106.83326,-6.22934],[106.83285,-6.22404],[106.83207,-6.22086],[106.83105,-6.21802],[106.83074,-6.21644],[106.83042,-6.21048],[106.83007,-6.20856],[106.82937,-6.2069],[106.8284,-6.20549],[106.82793,-6.20526],[106.82554,-6.2048]]]}},{"type":"Feature","properties":{"ref":"CB","name":"Jabodebek LRT Cibubur Line","colour":"#20409A","network":"Jabodebek LRT","operator":"Kereta Api Indonesia Divisi LRT Jabodebek","data_as_of":"2026-09-21"},"geometry":{"type":"MultiLineString","coordinates":[[[106.89569,-6.37389],[106.89461,-6.36742],[106.89409,-6.3658],[106.89264,-6.35653],[106.88986,-6.34652],[106.88844,-6.339],[106.88802,-6.33748],[106.88706,-6.33162],[106.88673,-6.32693],[106.88654,-6.31865],[106.88553,-6.31299],[106.88519,-6.31173],[106.88457,-6.31042],[106.88393,-6.30679],[106.88397,-6.30629],[106.88466,-6.30479],[106.8847,-6.30423],[106.88398,-6.3031],[106.88316,-6.29923],[106.88079,-6.29348],[106.87846,-6.28702],[106.87706,-6.28433],[106.87415,-6.27735],[106.87315,-6.27352],[106.873,-6.27017],[106.87346,-6.26672],[106.87325,-6.26426],[106.8735,-6.25912],[106.87307,-6.25703],[106.87195,-6.25603],[106.87171,-6.25559],[106.8717,-6.25509],[106.87289,-6.25215],[106.87345,-6.25141],[106.87567,-6.24923],[106.87584,-6.24877],[106.87579,-6.24841],[106.8754,-6.24791],[106.87376,-6.24656],[106.8703,-6.24563],[106.86673,-6.24413],[106.86424,-6.24346],[106.86271,-6.24334],[106.85928,-6.24349],[106.85228,-6.24341],[106.84631,-6.24377],[106.84304,-6.24356],[106.84125,-6.24287],[106.83295,-6.24062],[106.82775,-6.23758],[106.82748,-6.23716],[106.82744,-6.23668],[106.82808,-6.23557],[106.82889,-6.23483],[106.83121,-6.23357],[106.83241,-6.23221],[106.83319,-6.23022],[106.83322,-6.22878],[106.83281,-6.22383],[106.83207,-6.22086],[106.83105,-6.21802],[106.83074,-6.21644],[106.83042,-6.21048],[106.82997,-6.20826],[106.82937,-6.2069],[106.8283,-6.20541],[106.82554,-6.2048]],[[106.82552,-6.20485],[106.82792,-6.20531],[106.82837,-6.20553],[106.82932,-6.20692],[106.83003,-6.20857],[106.83037,-6.21048],[106.83069,-6.21644],[106.83102,-6.21805],[106.83203,-6.22087],[106.83277,-6.22385],[106.83318,-6.22879],[106.83316,-6.23022],[106.83234,-6.23223],[106.83118,-6.23353],[106.82886,-6.2348],[106.82804,-6.23554],[106.82739,-6.23668],[106.82744,-6.23718],[106.82771,-6.23761],[106.83293,-6.24067],[106.84124,-6.2429],[106.84302,-6.2436],[106.84631,-6.2438],[106.85228,-6.24345],[106.86417,-6.24349],[106.86671,-6.24417],[106.87038,-6.24569],[106.87367,-6.24658],[106.87538,-6.24793],[106.87575,-6.2484],[106.87578,-6.24888],[106.87542,-6.24947],[106.87285,-6.25213],[106.87163,-6.25528],[106.87186,-6.256],[106.87303,-6.25705],[106.87344,-6.25912],[106.8732,-6.26428],[106.87341,-6.26672],[106.87296,-6.27017],[106.87311,-6.27352],[106.8741,-6.27735],[106.87702,-6.28435],[106.87842,-6.28704],[106.88076,-6.29349],[106.88311,-6.29923],[106.88394,-6.30311],[106.88464,-6.30423],[106.88462,-6.30478],[106.88392,-6.30628],[106.88387,-6.30683],[106.88452,-6.31043],[106.88511,-6.31164],[106.88549,-6.31296],[106.88651,-6.31865],[106.88668,-6.32693],[106.88702,-6.33162],[106.88798,-6.33748],[106.88983,-6.34653],[106.89259,-6.35653],[106.89405,-6.36581],[106.89457,-6.36743],[106.89565,-6.3739]]]}},{"type":"Feature","properties":{"ref":"S","name":"LRT Jakarta","colour":"#F16227","network":"LRT Jakarta","data_as_of":"2026-09-21"},"geometry":{"type":"MultiLineString","coordinates":[[[106.8455,-6.20856],[106.847,-6.20888],[106.84757,-6.2087],[106.84806,-6.20824],[106.84875,-6.20668],[106.84946,-6.2028],[106.84966,-6.20246],[106.85199,-6.20111],[106.85667,-6.19728],[106.8596,-6.19531],[106.86212,-6.19367],[106.86389,-6.19291],[106.86605,-6.19247],[106.87198,-6.19193],[106.88586,-6.19341],[106.89042,-6.19345],[106.89092,-6.19333],[106.89117,-6.19292],[106.89114,-6.18551],[106.89149,-6.18227],[106.89247,-6.17897],[106.89373,-6.17677],[106.89419,-6.17627],[106.8956,-6.17547],[106.89623,-6.17484],[106.90891,-6.15473],[106.9094,-6.15454],[106.91396,-6.15493],[106.9143,-6.15538],[106.91428,-6.15743]],[[106.8459,-6.20875],[106.84661,-6.20893],[106.84718,-6.20889],[106.84777,-6.20861],[106.84822,-6.20809],[106.84879,-6.20669],[106.84962,-6.20255],[106.85202,-6.20115],[106.85699,-6.19711],[106.86164,-6.194],[106.86391,-6.19295],[106.86605,-6.19251],[106.87198,-6.19198],[106.88407,-6.19332],[106.89042,-6.19349],[106.891,-6.19333],[106.89121,-6.19279],[106.89118,-6.18583],[106.89143,-6.18306],[106.8921,-6.18009],[106.8931,-6.17781],[106.89411,-6.17637],[106.89562,-6.1755],[106.89626,-6.17486],[106.90904,-6.1547],[106.9094,-6.15458],[106.91385,-6.15498],[106.91415,-6.15542],[106.91413,-6.15742]]]}},{"type":"Feature","properties":{"name":"Bekasi Barat","network":"Jabodebek LRT","lines":["BK"]},"geometry":{"type":"Point","coordinates":[106.99041,-6.25297]}},{"type":"Feature","properties":{"name":"Boulevard Selatan","network":"LRT Jakarta","lines":["S"]},"geometry":{"type":"Point","coordinates":[106.89971,-6.16941]}},{"type":"Feature","properties":{"name":"Boulevard Utara Summarecon Mall","network":"LRT Jakarta","lines":["S"]},"geometry":{"type":"Point","coordinates":[106.90586,-6.15962]}},{"type":"Feature","properties":{"name":"Cawang","network":"Jabodebek LRT","lines":["BK","CB"]},"geometry":{"type":"Point","coordinates":[106.87123,-6.24589]}},{"type":"Feature","properties":{"name":"Cikoko","network":"Jabodebek LRT","lines":["BK","CB"]},"geometry":{"type":"Point","coordinates":[106.85707,-6.24345]}},{"type":"Feature","properties":{"name":"Cikunir 1","network":"Jabodebek LRT","lines":["BK"]},"geometry":{"type":"Point","coordinates":[106.95185,-6.25662]}},{"type":"Feature","properties":{"name":"Cikunir 2","network":"Jabodebek LRT","lines":["BK"]},"geometry":{"type":"Point","coordinates":[106.96318,-6.25468]}},{"type":"Feature","properties":{"name":"Ciliwung","network":"Jabodebek LRT","lines":["BK","CB"]},"geometry":{"type":"Point","coordinates":[106.86397,-6.24343]}},{"type":"Feature","properties":{"name":"Ciracas","network":"Jabodebek LRT","lines":["CB"]},"geometry":{"type":"Point","coordinates":[106.88666,-6.32377]}},{"type":"Feature","properties":{"name":"Dukuh Atas Bank Syariah Indonesia","network":"Jabodebek LRT","lines":["BK","CB"]},"geometry":{"type":"Point","coordinates":[106.82554,-6.2048]}},{"type":"Feature","properties":{"name":"Equestrian","network":"LRT Jakarta","lines":["S"]},"geometry":{"type":"Point","coordinates":[106.89131,-6.18374]}},{"type":"Feature","properties":{"name":"Halim","network":"Jabodebek LRT","lines":["BK"]},"geometry":{"type":"Point","coordinates":[106.8873,-6.24588]}},{"type":"Feature","properties":{"name":"Harjamukti","network":"Jabodebek LRT","lines":["CB"]},"geometry":{"type":"Point","coordinates":[106.89569,-6.37389]}},{"type":"Feature","properties":{"name":"Jatibening Baru","network":"Jabodebek LRT","lines":["BK"]},"geometry":{"type":"Point","coordinates":[106.92792,-6.25774]}},{"type":"Feature","properties":{"name":"Jatimulya","network":"Jabodebek LRT","lines":["BK"]},"geometry":{"type":"Point","coordinates":[107.02167,-6.26413]}},{"type":"Feature","properties":{"name":"Kampung Rambutan","network":"Jabodebek LRT","lines":["CB"]},"geometry":{"type":"Point","coordinates":[106.8844,-6.30955]}},{"type":"Feature","properties":{"name":"Kelapa Gading","network":"LRT Jakarta","lines":["S"]},"geometry":{"type":"Point","coordinates":[106.91428,-6.15743]}},{"type":"Feature","properties":{"name":"Kuningan","network":"Jabodebek LRT","lines":["BK","CB"]},"geometry":{"type":"Point","coordinates":[106.83322,-6.22878]}},{"type":"Feature","properties":{"name":"Manggarai","network":"LRT Jakarta","lines":["S"]},"geometry":{"type":"Point","coordinates":[106.8455,-6.20856]}},{"type":"Feature","properties":{"name":"Matraman","network":"LRT Jakarta","lines":["S"]},"geometry":{"type":"Point","coordinates":[106.85985,-6.19514]}},{"type":"Feature","properties":{"name":"Pancoran","network":"Jabodebek LRT","lines":["BK","CB"]},"geometry":{"type":"Point","coordinates":[106.83852,-6.24211]}},{"type":"Feature","properties":{"name":"Pramuka","network":"LRT Jakarta","lines":["S"]},"geometry":{"type":"Point","coordinates":[106.87071,-6.19199]}},{"type":"Feature","properties":{"name":"Proklamasi","network":"LRT Jakarta","lines":["S"]},"geometry":{"type":"Point","coordinates":[106.85001,-6.20223]}},{"type":"Feature","properties":{"name":"Pulomas","network":"LRT Jakarta","lines":["S"]},"geometry":{"type":"Point","coordinates":[106.89333,-6.17739]}},{"type":"Feature","properties":{"name":"Rasuna Said","network":"Jabodebek LRT","lines":["BK","CB"]},"geometry":{"type":"Point","coordinates":[106.83227,-6.22163]}},{"type":"Feature","properties":{"name":"Rawamangun","network":"LRT Jakarta","lines":["S"]},"geometry":{"type":"Point","coordinates":[106.88218,-6.19308]}},{"type":"Feature","properties":{"name":"Setiabudi","network":"Jabodebek LRT","lines":["BK","CB"]},"geometry":{"type":"Point","coordinates":[106.83026,-6.20933]}},{"type":"Feature","properties":{"name":"Taman Mini","network":"Jabodebek LRT","lines":["CB"]},"geometry":{"type":"Point","coordinates":[106.88058,-6.2929]}},{"type":"Feature","properties":{"name":"Velodrome","network":"LRT Jakarta","lines":["S"]},"geometry":{"type":"Point","coordinates":[106.89117,-6.19232]}}],"properties":{"data_as_of":"2026-09-21","source":["https://www.openstreetmap.org/copyright"]}}
