{"type":"FeatureCollection","features":[{"type":"Feature","properties":{"ref":"M","name":"MRT North-South Line","colour":"#CE0037","network":"MRT Jakarta","operator":"MRT Jakarta","data_as_of":"2026-09-21"},"geometry":{"type":"MultiLineString","coordinates":[[[106.82295,-6.19103],[106.8231,-6.19848],[106.8225,-6.20209],[106.82197,-6.2077],[106.82143,-6.20954],[106.81989,-6.21258],[106.81905,-6.21382],[106.81791,-6.21499],[106.80858,-6.22233],[106.806,-6.224],[106.80066,-6.22809],[106.79936,-6.22937],[106.79866,-6.23085],[106.79843,-6.2322],[106.79843,-6.24172],[106.79804,-6.24331],[106.79793,-6.24643],[106.79752,-6.24977],[106.79725,-6.25448],[106.79659,-6.26154],[106.79733,-6.2645],[106.79729,-6.26826],[106.79771,-6.27657],[106.797,-6.27941],[106.79607,-6.2821],[106.79589,-6.28477],[106.79533,-6.28834],[106.79519,-6.29085],[106.79493,-6.29169],[106.7943,-6.29226],[106.79362,-6.29244],[106.7861,-6.29232],[106.78111,-6.29085],[106.77859,-6.28943],[106.77746,-6.28912],[106.77607,-6.28927],[106.7723,-6.2892],[106.76954,-6.28936],[106.76858,-6.28966],[106.76703,-6.29057],[106.76858,-6.28966],[106.76954,-6.28936],[106.77607,-6.28931],[106.77746,-6.28917],[106.77857,-6.28947],[106.78063,-6.29071],[106.78608,-6.29236],[106.79363,-6.29249],[106.79469,-6.29206],[106.79517,-6.2913],[106.79611,-6.2821],[106.79711,-6.27919],[106.79776,-6.27657],[106.79731,-6.26764],[106.79738,-6.26471],[106.79663,-6.26154],[106.7973,-6.25448],[106.79758,-6.2495],[106.7982,-6.24542],[106.79824,-6.24322],[106.79847,-6.24172],[106.79849,-6.2322],[106.7987,-6.23086],[106.79917,-6.22975],[106.79996,-6.22875],[106.80606,-6.22412],[106.80866,-6.22244],[106.81704,-6.21586],[106.81885,-6.21424],[106.82002,-6.21264],[106.82156,-6.20959],[106.82209,-6.20773],[106.82248,-6.20294],[106.82319,-6.19846],[106.82304,-6.19103]]]}},{"type":"Feature","properties":{"name":"ASEAN Headquarters","network":"MRT Jakarta","lines":["M"]},"geometry":{"type":"Point","coordinates":[106.79842,-6.23877]}},{"type":"Feature","properties":{"name":"Bendungan Hilir","network":"MRT Jakarta","lines":["M"]},"geometry":{"type":"Point","coordinates":[106.81791,-6.21499]}},{"type":"Feature","properties":{"name":"Blok A VISA","network":"MRT Jakarta","lines":["M"]},"geometry":{"type":"Point","coordinates":[106.79712,-6.25578]}},{"type":"Feature","properties":{"name":"Blok M BCA","network":"MRT Jakarta","lines":["M"]},"geometry":{"type":"Point","coordinates":[106.79801,-6.24442]}},{"type":"Feature","properties":{"name":"Bundaran HI Bank Jakarta","network":"MRT Jakarta","lines":["M"]},"geometry":{"type":"Point","coordinates":[106.82296,-6.19185]}},{"type":"Feature","properties":{"name":"Cipete Raya TUKU","network":"MRT Jakarta","lines":["M"]},"geometry":{"type":"Point","coordinates":[106.7973,-6.27836]}},{"type":"Feature","properties":{"name":"Dukuh Atas BNI","network":"MRT Jakarta","lines":["M"]},"geometry":{"type":"Point","coordinates":[106.82275,-6.20079]}},{"type":"Feature","properties":{"name":"Fatmawati Indomaret","network":"MRT Jakarta","lines":["M"]},"geometry":{"type":"Point","coordinates":[106.79247,-6.29243]}},{"type":"Feature","properties":{"name":"Haji Nawi","network":"MRT Jakarta","lines":["M"]},"geometry":{"type":"Point","coordinates":[106.7973,-6.26669]}},{"type":"Feature","properties":{"name":"Istora Mandiri","network":"MRT Jakarta","lines":["M"]},"geometry":{"type":"Point","coordinates":[106.80858,-6.22233]}},{"type":"Feature","properties":{"name":"Lebak Bulus Bank Syariah Indonesia","network":"MRT Jakarta","lines":["M"]},"geometry":{"type":"Point","coordinates":[106.77494,-6.28925]}},{"type":"Feature","properties":{"name":"Senayan Mastercard","network":"MRT Jakarta","lines":["M"]},"geometry":{"type":"Point","coordinates":[106.80246,-6.22668]}},{"type":"Feature","properties":{"name":"Setiabudi Astra","network":"MRT Jakarta","lines":["M"]},"geometry":{"type":"Point","coordinates":[106.82164,-6.20905]}}],"properties":{"data_as_of":"2026-09-21","source":["https://www.openstreetmap.org/copyright"]}}
