{"type":"FeatureCollection","features":[{"type":"Feature","properties":{"ref":"1","name":"Transjakarta BRT 1","colour":"#FF0000","network":"Transjakarta","operator":"Transjakarta","data_as_of":"2026-09-21"},"geometry":{"type":"MultiLineString","coordinates":[[[106.81141,-6.13533],[106.81111,-6.13424],[106.81456,-6.13327],[106.81549,-6.13641],[106.81547,-6.13672],[106.81424,-6.13707],[106.81368,-6.13732],[106.81359,-6.13752],[106.81666,-6.14871],[106.81695,-6.14991],[106.81679,-6.15004],[106.8177,-6.15406],[106.81795,-6.15508],[106.81828,-6.15552],[106.81846,-6.15619],[106.82154,-6.17005],[106.82204,-6.17082],[106.82289,-6.17124],[106.82308,-6.17149],[106.8229,-6.17962],[106.82312,-6.18061],[106.82331,-6.18534],[106.82302,-6.19087],[106.8231,-6.19419],[106.82353,-6.195],[106.82312,-6.19564],[106.82317,-6.2007],[106.82247,-6.20426],[106.82181,-6.20885],[106.82021,-6.21224],[106.8192,-6.21381],[106.81793,-6.21508],[106.81033,-6.22112],[106.80573,-6.22432],[106.8005,-6.22831],[106.79988,-6.22883],[106.79969,-6.22934],[106.79924,-6.22978],[106.79877,-6.23084],[106.79854,-6.23198],[106.7985,-6.2421],[106.79919,-6.24304],[106.79988,-6.24335],[106.80224,-6.24335],[106.80248,-6.24316],[106.80235,-6.24266],[106.80233,-6.24022],[106.80218,-6.24004],[106.7984,-6.23989],[106.79841,-6.23182],[106.79866,-6.23067],[106.79928,-6.22918],[106.80568,-6.22424],[106.80889,-6.22214],[106.81707,-6.21569],[106.81884,-6.2141],[106.82001,-6.21241],[106.82175,-6.2088],[106.82238,-6.20425],[106.82312,-6.20068],[106.82305,-6.19571],[106.82258,-6.19495],[106.823,-6.19419],[106.82291,-6.18956],[106.82305,-6.18672],[106.82263,-6.18065],[106.82289,-6.17186],[106.82264,-6.17127],[106.82177,-6.17103],[106.82147,-6.17058],[106.8208,-6.16751],[106.82086,-6.16715],[106.81833,-6.15587],[106.81783,-6.15502],[106.81596,-6.14649],[106.81322,-6.13661],[106.81184,-6.13684],[106.81141,-6.13533]]]}},{"type":"Feature","properties":{"ref":"2","name":"Transjakarta BRT 2","colour":"#264598","network":"Transjakarta","operator":"Transjakarta","data_as_of":"2026-09-21"},"geometry":{"type":"MultiLineString","coordinates":[[[106.90914,-6.18326],[106.90989,-6.18266],[106.90989,-6.18234],[106.90699,-6.18064],[106.90126,-6.17848],[106.89639,-6.17804],[106.89068,-6.173],[106.88144,-6.16738],[106.87977,-6.16659],[106.87681,-6.16639],[106.87305,-6.16748],[106.86099,-6.17304],[106.85887,-6.17378],[106.85448,-6.17448],[106.84563,-6.17514],[106.84519,-6.17538],[106.84369,-6.17749],[106.84226,-6.17853],[106.84202,-6.17842],[106.83834,-6.17428],[106.83813,-6.17431],[106.83635,-6.17572],[106.83555,-6.17484],[106.83432,-6.17298],[106.83413,-6.17303],[106.8328,-6.17462],[106.83258,-6.17599],[106.8312,-6.17634],[106.83098,-6.17624],[106.83002,-6.17317],[106.8301,-6.17276],[106.83333,-6.17098],[106.83213,-6.16844],[106.83163,-6.16803],[106.83006,-6.16825],[106.8254,-6.16731],[106.82099,-6.16761],[106.82157,-6.17016],[106.82204,-6.17082],[106.82289,-6.17124],[106.82308,-6.17149],[106.8229,-6.17962],[106.82306,-6.1803],[106.8252,-6.18046],[106.83091,-6.18014],[106.83107,-6.18003],[106.83107,-6.17963],[106.83046,-6.17883],[106.83068,-6.17861],[106.83131,-6.17916],[106.83197,-6.17927],[106.8329,-6.18179],[106.83333,-6.18241],[106.83384,-6.1827],[106.83887,-6.18092],[106.84278,-6.1781],[106.84412,-6.17668],[106.84514,-6.17534],[106.8456,-6.17506],[106.85444,-6.17442],[106.8591,-6.17366],[106.86095,-6.17299],[106.87245,-6.16766],[106.87626,-6.16645],[106.87755,-6.1663],[106.87944,-6.16649],[106.88062,-6.16686],[106.89075,-6.17292],[106.89647,-6.178],[106.90112,-6.17837],[106.90733,-6.18074],[106.90866,-6.18148],[106.90886,-6.18192],[106.90861,-6.18251],[106.90872,-6.18338],[106.90885,-6.18348],[106.90914,-6.18326]]]}},{"type":"Feature","properties":{"ref":"3","name":"Transjakarta BRT 3","colour":"#FBC715","network":"Transjakarta","operator":"Transjakarta","data_as_of":"2026-09-21"},"geometry":{"type":"MultiLineString","coordinates":[[[106.70602,-6.1545],[106.70607,-6.15485],[106.70635,-6.15512],[106.70659,-6.15575],[106.70896,-6.15584],[106.71065,-6.15558],[106.71359,-6.15562],[106.71419,-6.15543],[106.71615,-6.15426],[106.71874,-6.1531],[106.72135,-6.15281],[106.7224,-6.15291],[106.72437,-6.15349],[106.73112,-6.15483],[106.73238,-6.15482],[106.73469,-6.15447],[106.73944,-6.15455],[106.74943,-6.15543],[106.75387,-6.15598],[106.76198,-6.15841],[106.76458,-6.1583],[106.76691,-6.15751],[106.76735,-6.15766],[106.76867,-6.15861],[106.76961,-6.16084],[106.77026,-6.16139],[106.77897,-6.16482],[106.78111,-6.16487],[106.78479,-6.16562],[106.78624,-6.16639],[106.78764,-6.16674],[106.78897,-6.16684],[106.80029,-6.16597],[106.80536,-6.166],[106.81067,-6.16563],[106.81112,-6.17098],[106.81899,-6.16953],[106.82105,-6.16735],[106.82229,-6.16737],[106.82539,-6.16708],[106.82565,-6.17136],[106.82373,-6.17146],[106.82319,-6.17191],[106.8229,-6.17962],[106.82312,-6.18065],[106.82289,-6.18088],[106.82263,-6.18065],[106.82289,-6.17186],[106.82264,-6.17127],[106.82177,-6.17103],[106.82154,-6.17076],[106.82087,-6.16768],[106.81903,-6.16956],[106.81083,-6.17107],[106.81036,-6.1657],[106.80541,-6.16605],[106.79989,-6.16607],[106.78891,-6.16691],[106.78748,-6.16678],[106.78614,-6.16646],[106.78465,-6.16566],[106.78108,-6.16492],[106.779,-6.16489],[106.77022,-6.16142],[106.7696,-6.16091],[106.76868,-6.15867],[106.76705,-6.15758],[106.76653,-6.15761],[106.76457,-6.15835],[106.76202,-6.15846],[106.75387,-6.15605],[106.74291,-6.15485],[106.73906,-6.15461],[106.73461,-6.15454],[106.73237,-6.15489],[106.73066,-6.15487],[106.72437,-6.15355],[106.7226,-6.15301],[106.72134,-6.15287],[106.71857,-6.15322],[106.71619,-6.1543],[106.71422,-6.15549],[106.71363,-6.15565],[106.71057,-6.15563],[106.70902,-6.15589],[106.70659,-6.15579],[106.70621,-6.15509],[106.7056,-6.1549],[106.70546,-6.15449]]]}},{"type":"Feature","properties":{"ref":"4","name":"Transjakarta BRT 4","colour":"#562A62","network":"Transjakarta","operator":"Transjakarta","data_as_of":"2026-09-21"},"geometry":{"type":"MultiLineString","coordinates":[[[106.84599,-6.20875],[106.84626,-6.20889],[106.84721,-6.20887],[106.84827,-6.20843],[106.84882,-6.208],[106.84877,-6.20631],[106.84945,-6.2028],[106.84965,-6.20246],[106.85163,-6.20127],[106.8557,-6.19782],[106.86183,-6.19383],[106.863,-6.19322],[106.86441,-6.19274],[106.86659,-6.1924],[106.87207,-6.19192],[106.88601,-6.19341],[106.90217,-6.19352],[106.90309,-6.19335],[106.90466,-6.19246],[106.90578,-6.19205],[106.90642,-6.18918],[106.90577,-6.18662],[106.90664,-6.1855],[106.90992,-6.18261],[106.9099,-6.18242],[106.90886,-6.18192],[106.90861,-6.18251],[106.90881,-6.18364],[106.9067,-6.18558],[106.9058,-6.18666],[106.90649,-6.18925],[106.90582,-6.19205],[106.90321,-6.19335],[106.90185,-6.19357],[106.88613,-6.19347],[106.87668,-6.19258],[106.87208,-6.19199],[106.86605,-6.19252],[106.86416,-6.19288],[106.86272,-6.19342],[106.86151,-6.19409],[106.85733,-6.19691],[106.85186,-6.20126],[106.84963,-6.20254],[106.84894,-6.20595],[106.84891,-6.20794],[106.84794,-6.20874],[106.84725,-6.20898],[106.84615,-6.20887],[106.83709,-6.20565],[106.83087,-6.20477],[106.82522,-6.20353],[106.82488,-6.20462],[106.82305,-6.20426],[106.82321,-6.20325],[106.83101,-6.20483],[106.83704,-6.20567],[106.84523,-6.20861]]]}},{"type":"Feature","properties":{"ref":"5","name":"Transjakarta BRT 5","colour":"#BC581A","network":"Transjakarta","operator":"Transjakarta","data_as_of":"2026-09-21"},"geometry":{"type":"MultiLineString","coordinates":[[[106.83074,-6.12747],[106.83076,-6.12771],[106.83043,-6.12799],[106.83065,-6.12956],[106.83088,-6.12993],[106.8343,-6.14534],[106.83438,-6.14751],[106.8417,-6.17599],[106.84315,-6.18303],[106.84758,-6.19072],[106.85032,-6.19589],[106.85696,-6.20259],[106.86026,-6.21085],[106.86146,-6.21326],[106.86595,-6.2153],[106.86643,-6.21585],[106.86708,-6.21708],[106.86816,-6.22025],[106.86807,-6.22325],[106.86751,-6.22438],[106.86718,-6.22451]],[[106.86659,-6.22452],[106.86632,-6.22429],[106.8655,-6.22141],[106.86424,-6.21857],[106.86391,-6.21634],[106.86213,-6.21462],[106.8615,-6.21362],[106.86014,-6.21073],[106.85689,-6.20263],[106.85424,-6.19984],[106.85153,-6.19736],[106.85022,-6.19587],[106.84738,-6.19051],[106.84306,-6.18305],[106.84113,-6.17425],[106.83434,-6.14752],[106.83425,-6.14535],[106.83066,-6.12964],[106.83037,-6.12754]]]}},{"type":"Feature","properties":{"ref":"6","name":"Transjakarta BRT 6","colour":"#2EA43F","network":"Transjakarta","operator":"Transjakarta","data_as_of":"2026-09-21"},"geometry":{"type":"MultiLineString","coordinates":[[[106.81884,-6.30569],[106.81853,-6.30565],[106.81856,-6.30545],[106.82057,-6.30578],[106.82127,-6.30107],[106.82108,-6.29994],[106.8211,-6.29714],[106.82344,-6.29132],[106.82575,-6.28668],[106.82712,-6.28299],[106.8284,-6.28039],[106.83012,-6.27757],[106.83029,-6.27677],[106.83016,-6.2757],[106.83029,-6.27418],[106.8307,-6.27186],[106.83066,-6.27115],[106.831,-6.2688],[106.8306,-6.26657],[106.83054,-6.26305],[106.82961,-6.26222],[106.82902,-6.26097],[106.82708,-6.25313],[106.82588,-6.24484],[106.82566,-6.24212],[106.82573,-6.24038],[106.8265,-6.23796],[106.82797,-6.23566],[106.82859,-6.23496],[106.83115,-6.23357],[106.83224,-6.23238],[106.83285,-6.23116],[106.83321,-6.22945],[106.83278,-6.22403],[106.83201,-6.22094],[106.83099,-6.21807],[106.83068,-6.21656],[106.83015,-6.20915],[106.82935,-6.20702],[106.82794,-6.20462],[106.82788,-6.20228],[106.82762,-6.20201],[106.82731,-6.20226],[106.82777,-6.20323],[106.83068,-6.20393],[106.83405,-6.20448],[106.83396,-6.20525],[106.83068,-6.20478],[106.82344,-6.2032],[106.82313,-6.20333],[106.82304,-6.20438],[106.82488,-6.20462],[106.82522,-6.20353],[106.82999,-6.20462],[106.82994,-6.2058],[106.82938,-6.20683],[106.83007,-6.20844],[106.83039,-6.20984],[106.83076,-6.21638],[106.83123,-6.21856],[106.83212,-6.22091],[106.83292,-6.22423],[106.8333,-6.22958],[106.83285,-6.23143],[106.83226,-6.23249],[106.83138,-6.23348],[106.83072,-6.23398],[106.82899,-6.23483],[106.82829,-6.23546],[106.82657,-6.23797],[106.82607,-6.23917],[106.82579,-6.24038],[106.82593,-6.24484],[106.82712,-6.25306],[106.829,-6.26082],[106.82949,-6.26199],[106.83057,-6.26297],[106.83064,-6.26655],[106.83104,-6.26879],[106.83068,-6.27119],[106.83072,-6.27197],[106.83045,-6.27305],[106.83022,-6.27558],[106.83032,-6.27686],[106.83013,-6.27773],[106.82846,-6.28042],[106.82719,-6.28296],[106.8257,-6.28693],[106.82355,-6.29125],[106.82117,-6.29714],[106.82118,-6.30006],[106.82135,-6.30131],[106.82065,-6.30575],[106.81929,-6.30575]]]}},{"type":"Feature","properties":{"ref":"7","name":"Transjakarta BRT 7","colour":"#E1245A","network":"Transjakarta","operator":"PT Transportasi Jakarta","data_as_of":"2026-09-21"},"geometry":{"type":"MultiLineString","coordinates":[[[106.86703,-6.22473],[106.86719,-6.22482],[106.86695,-6.22549],[106.86725,-6.22701],[106.86732,-6.23181],[106.86761,-6.23439],[106.86878,-6.2372],[106.86926,-6.23941],[106.8693,-6.24174],[106.86876,-6.24405],[106.86964,-6.24452],[106.87081,-6.2457],[106.87428,-6.24654],[106.87493,-6.24691],[106.87502,-6.24732],[106.87422,-6.24922],[106.8726,-6.25236],[106.87085,-6.25649],[106.86583,-6.26342],[106.86623,-6.26807],[106.86747,-6.27018],[106.86719,-6.2729],[106.86751,-6.27463],[106.86815,-6.27592],[106.87205,-6.28171],[106.87206,-6.28221],[106.87096,-6.28615],[106.87087,-6.28792],[106.87224,-6.29334],[106.87165,-6.29637],[106.8706,-6.2988],[106.86693,-6.30339],[106.86598,-6.30492],[106.86556,-6.30595],[106.86579,-6.30641],[106.86931,-6.30816],[106.87068,-6.30841],[106.87475,-6.3076],[106.88125,-6.3058],[106.88262,-6.30561],[106.88709,-6.30562],[106.88718,-6.30609],[106.8867,-6.30642],[106.88579,-6.30747],[106.88428,-6.30794],[106.8835,-6.30781],[106.88143,-6.30651],[106.88051,-6.30662],[106.88163,-6.30874],[106.88254,-6.3089],[106.88299,-6.30948],[106.88296,-6.30988],[106.8824,-6.31019],[106.88171,-6.30951],[106.88083,-6.30759],[106.87999,-6.30676],[106.87206,-6.30865],[106.87003,-6.30889],[106.86863,-6.30858],[106.86626,-6.30736],[106.86579,-6.30708],[106.8655,-6.30642],[106.865,-6.3061],[106.86626,-6.30394],[106.87053,-6.29877],[106.87147,-6.29661],[106.87216,-6.2934],[106.8708,-6.28787],[106.87088,-6.28617],[106.87198,-6.2822],[106.87198,-6.28176],[106.8681,-6.27597],[106.8674,-6.27457],[106.8671,-6.27288],[106.86739,-6.27017],[106.86612,-6.26798],[106.86567,-6.26374],[106.86586,-6.26309],[106.86978,-6.25797],[106.87099,-6.25606],[106.87224,-6.25295],[106.87362,-6.25017],[106.87458,-6.24757],[106.87436,-6.24722],[106.87338,-6.24666],[106.86828,-6.24493],[106.8692,-6.24208],[106.86923,-6.23965],[106.86876,-6.23728],[106.86755,-6.23432],[106.86717,-6.23],[106.8672,-6.2271],[106.86694,-6.22571],[106.86655,-6.22481],[106.86675,-6.22473]]]}},{"type":"Feature","properties":{"ref":"8","name":"Transjakarta BRT 8","colour":"#CC2790","network":"Transjakarta","operator":"Transjakarta","data_as_of":"2026-09-21"},"geometry":{"type":"MultiLineString","coordinates":[[[106.83479,-6.16612],[106.83514,-6.16659],[106.83576,-6.1683],[106.83302,-6.16972],[106.83269,-6.16956],[106.83212,-6.16842],[106.83159,-6.16801],[106.83006,-6.16825],[106.8254,-6.16731],[106.82099,-6.16761],[106.81903,-6.16956],[106.80867,-6.17145],[106.80763,-6.17201],[106.80428,-6.1744],[106.80268,-6.17526],[106.79823,-6.1784],[106.79595,-6.1794],[106.79546,-6.17916],[106.79458,-6.17776],[106.79307,-6.17631],[106.78928,-6.1731],[106.78845,-6.17168],[106.78785,-6.17],[106.78773,-6.16753],[106.78789,-6.16684],[106.78633,-6.16653],[106.78465,-6.16566],[106.78108,-6.16492],[106.779,-6.16489],[106.77032,-6.16155],[106.76954,-6.16099],[106.76859,-6.1587],[106.76712,-6.15769],[106.76663,-6.15765],[106.76458,-6.15843],[106.76312,-6.15852],[106.76307,-6.1643],[106.76324,-6.16583],[106.76358,-6.16708],[106.76478,-6.16929],[106.76533,-6.17096],[106.76577,-6.17322],[106.76652,-6.17945],[106.76855,-6.18571],[106.7686,-6.18782],[106.76896,-6.1906],[106.76891,-6.19528],[106.76914,-6.2008],[106.76945,-6.20297],[106.76963,-6.20593],[106.77058,-6.20915],[106.77276,-6.21391],[106.77429,-6.21578],[106.77831,-6.21889],[106.78335,-6.22145],[106.78496,-6.22247],[106.78686,-6.22455],[106.7906,-6.22796],[106.79082,-6.22857],[106.79075,-6.22902],[106.79015,-6.23005],[106.78833,-6.23261],[106.78533,-6.23488],[106.78416,-6.23621],[106.78307,-6.23907],[106.7826,-6.24372],[106.78132,-6.24747],[106.78124,-6.249],[106.78169,-6.25288],[106.78184,-6.26044],[106.78231,-6.26169],[106.78326,-6.26263],[106.7836,-6.2633],[106.78376,-6.266],[106.78372,-6.26924],[106.78361,-6.2702],[106.78096,-6.2798],[106.78103,-6.28023],[106.78062,-6.28069],[106.78043,-6.2815],[106.78026,-6.28298],[106.78035,-6.28625],[106.77989,-6.287],[106.77766,-6.28879],[106.77627,-6.28938],[106.77368,-6.28938],[106.77325,-6.28917],[106.77107,-6.28904],[106.77097,-6.28857],[106.77117,-6.28722],[106.77204,-6.28155],[106.7722,-6.28137],[106.7725,-6.28142],[106.77528,-6.28454],[106.77639,-6.28616],[106.77797,-6.28797],[106.77827,-6.28804],[106.77866,-6.28787],[106.77979,-6.2869],[106.78024,-6.28621],[106.78015,-6.28298],[106.78053,-6.28062],[106.78043,-6.28014],[106.78088,-6.27972],[106.78122,-6.27871],[106.78352,-6.27006],[106.78361,-6.26918],[106.78352,-6.26332],[106.78317,-6.26267],[106.78214,-6.26168],[106.78179,-6.26034],[106.78159,-6.25217],[106.78123,-6.24869],[106.78132,-6.24747],[106.78255,-6.24371],[106.78305,-6.23873],[106.78416,-6.23621],[106.78563,-6.23458],[106.7884,-6.23245],[106.79049,-6.22939],[106.79069,-6.22855],[106.7903,-6.22778],[106.7869,-6.22467],[106.78532,-6.22285],[106.78469,-6.22232],[106.77819,-6.21886],[106.77422,-6.21577],[106.77272,-6.21392],[106.77051,-6.20913],[106.76948,-6.20544],[106.76938,-6.20275],[106.76899,-6.19949],[106.76886,-6.19079],[106.7685,-6.1858],[106.76647,-6.17946],[106.7657,-6.17325],[106.76521,-6.17074],[106.76473,-6.16931],[106.76367,-6.16742],[106.76317,-6.16586],[106.76299,-6.16397],[106.76313,-6.15835],[106.76453,-6.15826],[106.76653,-6.1575],[106.76712,-6.15751],[106.76878,-6.15867],[106.76966,-6.16082],[106.7703,-6.16135],[106.77897,-6.16482],[106.78111,-6.16487],[106.7846,-6.16558],[106.78636,-6.16644],[106.7888,-6.16685],[106.78844,-6.16802],[106.78843,-6.16905],[106.78866,-6.1705],[106.78938,-6.17206],[106.79076,-6.17361],[106.79497,-6.17752],[106.79597,-6.17875],[106.79658,-6.17911],[106.79826,-6.17832],[106.80272,-6.17518],[106.80424,-6.17437],[106.80757,-6.172],[106.80859,-6.17144],[106.81899,-6.16953],[106.82105,-6.16735],[106.82558,-6.16709],[106.83071,-6.16805],[106.83159,-6.16781],[106.83394,-6.16639],[106.83461,-6.16605],[106.83479,-6.16612]]]}},{"type":"Feature","properties":{"ref":"9","name":"Transjakarta BRT 9","colour":"#409592","network":"Transjakarta","operator":"PT. Transportasi Jakarta","data_as_of":"2026-09-21"},"geometry":{"type":"MultiLineString","coordinates":[[[106.88635,-6.29125],[106.88615,-6.29096],[106.88493,-6.29105],[106.88305,-6.29048],[106.88052,-6.29011],[106.88008,-6.28891],[106.87972,-6.28866],[106.87777,-6.28941],[106.87716,-6.28925],[106.87707,-6.28969],[106.87821,-6.29009],[106.87853,-6.28989],[106.87858,-6.2894],[106.87757,-6.28732],[106.87676,-6.2847],[106.87363,-6.27708],[106.8729,-6.2747],[106.87257,-6.27298],[106.87247,-6.26896],[106.87222,-6.26697],[106.87276,-6.26452],[106.87302,-6.25938],[106.87249,-6.25688],[106.8713,-6.25553],[106.87224,-6.25295],[106.87362,-6.25017],[106.87456,-6.24773],[106.87452,-6.24738],[106.87356,-6.24674],[106.87012,-6.24556],[106.86911,-6.24493],[106.86473,-6.24343],[106.86293,-6.24327],[106.85247,-6.24333],[106.84623,-6.24372],[106.84322,-6.24353],[106.83817,-6.24188],[106.83348,-6.24074],[106.83244,-6.2403],[106.82541,-6.23589],[106.82264,-6.23401],[106.82164,-6.2331],[106.80868,-6.21428],[106.80792,-6.21329],[106.80669,-6.21212],[106.80579,-6.21069],[106.8022,-6.20645],[106.80113,-6.20489],[106.79855,-6.19999],[106.79733,-6.19577],[106.797,-6.19184],[106.79665,-6.18255],[106.7963,-6.18033],[106.79574,-6.17917],[106.7949,-6.17808],[106.7927,-6.17596],[106.78928,-6.1731],[106.78845,-6.17168],[106.78777,-6.16958],[106.78778,-6.16717],[106.79067,-6.16032],[106.79343,-6.1541],[106.79512,-6.15274],[106.79444,-6.15106],[106.79359,-6.14484],[106.79274,-6.134],[106.7918,-6.12526],[106.79171,-6.11773],[106.78457,-6.11772],[106.78484,-6.11588],[106.78496,-6.1158],[106.79013,-6.11574]],[[106.79121,-6.11573],[106.79424,-6.11576],[106.79406,-6.11764],[106.79225,-6.11767],[106.79211,-6.11785],[106.79222,-6.12459],[106.7921,-6.12595],[106.79375,-6.14511],[106.79432,-6.14855],[106.79454,-6.15086],[106.79531,-6.15265],[106.79517,-6.15297],[106.79382,-6.15413],[106.79091,-6.16066],[106.79076,-6.16159],[106.78887,-6.16641],[106.78844,-6.16802],[106.78843,-6.16905],[106.78866,-6.1705],[106.78938,-6.17206],[106.79076,-6.17361],[106.79513,-6.17768],[106.79588,-6.1786],[106.79661,-6.17996],[106.79704,-6.18186],[106.79738,-6.19296],[106.79784,-6.19643],[106.79874,-6.19929],[106.80148,-6.20489],[106.80194,-6.20561],[106.80576,-6.21013],[106.807,-6.21197],[106.80887,-6.21393],[106.81525,-6.22308],[106.82143,-6.23233],[106.82209,-6.23305],[106.82323,-6.23393],[106.83237,-6.23975],[106.83744,-6.24139],[106.84099,-6.24212],[106.84284,-6.24276],[106.84522,-6.24324],[106.84708,-6.2433],[106.85029,-6.24303],[106.86033,-6.24293],[106.86456,-6.24308],[106.8692,-6.24442],[106.86977,-6.24473],[106.87092,-6.24575],[106.87385,-6.24639],[106.87493,-6.24691],[106.87498,-6.24754],[106.87367,-6.2503],[106.87345,-6.25269],[106.87271,-6.25394],[106.87259,-6.25455],[106.87333,-6.26015],[106.87308,-6.26395],[106.87327,-6.26706],[106.87279,-6.26957],[106.87273,-6.2714],[106.87286,-6.27299],[106.87349,-6.27603],[106.87579,-6.28178],[106.87886,-6.28827],[106.88002,-6.28851],[106.8806,-6.28974],[106.88098,-6.29007],[106.88256,-6.29033],[106.88493,-6.29105],[106.88638,-6.29092],[106.88657,-6.29119]]]}},{"type":"Feature","properties":{"ref":"10","name":"Transjakarta BRT 10","colour":"#8E181E","network":"Transjakarta","operator":"Transjakarta","data_as_of":"2026-09-21"},"geometry":{"type":"MultiLineString","coordinates":[[[106.88217,-6.10953],[106.88288,-6.1095],[106.88417,-6.10984],[106.89313,-6.11012],[106.8931,-6.11329],[106.89324,-6.11357],[106.89356,-6.11922],[106.89367,-6.12469],[106.89396,-6.12866],[106.89387,-6.1301],[106.88974,-6.14866],[106.88868,-6.15088],[106.88718,-6.15335],[106.8787,-6.16684],[106.87803,-6.16853],[106.87632,-6.17503],[106.87607,-6.17668],[106.87524,-6.19147],[106.87343,-6.2004],[106.87328,-6.20219],[106.87385,-6.20573],[106.87435,-6.21462],[106.87446,-6.22008],[106.87475,-6.22347],[106.87529,-6.22683],[106.87809,-6.2383],[106.87818,-6.23971],[106.87805,-6.24132],[106.87752,-6.24265],[106.8764,-6.24416],[106.87408,-6.24947],[106.87248,-6.25262],[106.87085,-6.25649],[106.86975,-6.25816],[106.86684,-6.26192],[106.86573,-6.26199]],[[106.86543,-6.26199],[106.86499,-6.26205],[106.86459,-6.26231],[106.86516,-6.263],[106.86583,-6.26301],[106.86978,-6.25797],[106.87099,-6.25606],[106.87224,-6.25295],[106.87362,-6.25017],[106.8767,-6.24302],[106.87804,-6.23931],[106.87783,-6.23761],[106.87552,-6.22825],[106.87473,-6.22419],[106.87418,-6.21827],[106.87378,-6.20589],[106.8732,-6.2022],[106.87337,-6.20031],[106.87514,-6.19145],[106.87603,-6.17637],[106.87665,-6.17323],[106.87848,-6.16711],[106.8869,-6.15343],[106.88713,-6.15262],[106.88827,-6.15063],[106.88924,-6.14848],[106.89013,-6.14545],[106.8906,-6.14255],[106.89199,-6.13637],[106.892,-6.13356],[106.89313,-6.13104],[106.89344,-6.12965],[106.89296,-6.11414],[106.89304,-6.11018],[106.88287,-6.10988],[106.88229,-6.11044],[106.8813,-6.10983]]]}},{"type":"Feature","properties":{"ref":"11","name":"Transjakarta BRT 11","colour":"#2D4CA4","network":"Transjakarta","operator":"Transjakarta","data_as_of":"2026-09-21"},"geometry":{"type":"MultiLineString","coordinates":[[[106.86689,-6.22452],[106.86652,-6.22452],[106.86632,-6.22429],[106.8655,-6.22141],[106.86424,-6.21857],[106.86391,-6.21634],[106.86199,-6.21444],[106.8615,-6.21362],[106.86168,-6.2135],[106.86648,-6.21554],[106.86704,-6.21565],[106.86952,-6.21538],[106.8878,-6.21423],[106.88995,-6.21361],[106.89164,-6.21334],[106.9056,-6.21362],[106.93818,-6.2176],[106.93893,-6.21728],[106.93933,-6.2167],[106.93965,-6.2125],[106.93978,-6.21229],[106.94582,-6.21239],[106.94725,-6.21201],[106.94839,-6.21149],[106.95175,-6.20962],[106.95218,-6.20977],[106.95216,-6.21028],[106.95099,-6.21091],[106.95115,-6.21126],[106.95174,-6.21167],[106.95219,-6.21244],[106.95257,-6.21247],[106.9532,-6.2122],[106.95356,-6.21293],[106.95342,-6.21319],[106.95285,-6.21345],[106.95257,-6.21247],[106.95324,-6.21214],[106.95306,-6.21161],[106.95343,-6.2113],[106.95345,-6.2109],[106.95333,-6.21077],[106.95284,-6.2109],[106.95257,-6.21038],[106.95224,-6.21024],[106.95099,-6.21091],[106.95212,-6.2132],[106.95306,-6.2174],[106.95324,-6.21883],[106.95307,-6.21889],[106.95255,-6.21885],[106.95238,-6.21655],[106.95188,-6.21461],[106.95051,-6.21179],[106.95007,-6.21147],[106.94936,-6.21182],[106.94852,-6.21162],[106.94747,-6.21214],[106.94571,-6.21259],[106.94017,-6.21256],[106.93968,-6.21307],[106.93949,-6.21631],[106.93931,-6.21696],[106.93891,-6.21742],[106.93806,-6.21766],[106.90595,-6.21375],[106.89166,-6.21341],[106.8905,-6.21356],[106.88741,-6.21441],[106.86647,-6.21565],[106.8664,-6.21578],[106.86708,-6.21708],[106.86816,-6.22025],[106.86807,-6.22325],[106.86751,-6.22438],[106.86718,-6.22451]]]}},{"type":"Feature","properties":{"ref":"12","name":"Transjakarta BRT 12","colour":"#62BB72","network":"Transjakarta","operator":"Transjakarta","data_as_of":"2026-09-21"},"geometry":{"type":"MultiLineString","coordinates":[[[106.79121,-6.11573],[106.79424,-6.11576],[106.79406,-6.11764],[106.79225,-6.11767],[106.79211,-6.11785],[106.79232,-6.1252],[106.79349,-6.12476],[106.79466,-6.12472],[106.79559,-6.12474],[106.79745,-6.12526],[106.80402,-6.12514],[106.80682,-6.13525],[106.80997,-6.13444],[106.80919,-6.13146],[106.80926,-6.13131],[106.8102,-6.13107],[106.81101,-6.13397],[106.81123,-6.1342],[106.81455,-6.13324],[106.8155,-6.1365],[106.81537,-6.13682],[106.81363,-6.13736],[106.8139,-6.13832],[106.82122,-6.13687],[106.82821,-6.13574],[106.83193,-6.13471],[106.8343,-6.14534],[106.83438,-6.14751],[106.83737,-6.15907],[106.83753,-6.15908],[106.84387,-6.15723],[106.84398,-6.157],[106.84362,-6.15532],[106.84464,-6.15387],[106.84526,-6.1534],[106.85535,-6.15193],[106.85651,-6.15167],[106.85677,-6.15147],[106.85837,-6.14879],[106.85678,-6.14011],[106.87049,-6.13755],[106.87242,-6.13728],[106.87455,-6.13737],[106.88714,-6.14125],[106.88459,-6.14938],[106.88684,-6.14985],[106.88819,-6.15035],[106.88862,-6.15027],[106.88951,-6.14814],[106.89018,-6.14539],[106.8906,-6.14255],[106.89199,-6.13637],[106.892,-6.13356],[106.89313,-6.13104],[106.89344,-6.12965],[106.89296,-6.11414],[106.89304,-6.11018],[106.88287,-6.10988],[106.88229,-6.11044],[106.8813,-6.10983]],[[106.88217,-6.10953],[106.88288,-6.1095],[106.88417,-6.10984],[106.89313,-6.11012],[106.8931,-6.11329],[106.89324,-6.11357],[106.89356,-6.11922],[106.89367,-6.12469],[106.89396,-6.12866],[106.89387,-6.1301],[106.88986,-6.14768],[106.88874,-6.15035],[106.88861,-6.15028],[106.88951,-6.14814],[106.89001,-6.14619],[106.89057,-6.1425],[106.874,-6.13747],[106.87214,-6.1375],[106.86709,-6.1384],[106.85694,-6.14032],[106.85853,-6.14885],[106.85644,-6.15197],[106.85603,-6.15214],[106.8547,-6.15217],[106.8466,-6.15343],[106.84511,-6.15383],[106.84462,-6.15415],[106.84377,-6.15534],[106.84419,-6.15703],[106.8468,-6.15644],[106.84748,-6.15634],[106.84752,-6.15651],[106.84024,-6.1583],[106.83755,-6.15916],[106.83474,-6.16032],[106.83468,-6.1602],[106.83733,-6.1591],[106.83434,-6.14752],[106.83425,-6.14535],[106.83194,-6.13503],[106.82781,-6.13591],[106.81703,-6.13771],[106.81408,-6.13848],[106.81378,-6.1384],[106.81319,-6.13656],[106.81196,-6.13684],[106.81172,-6.13673],[106.81138,-6.13522],[106.81107,-6.13426],[106.8109,-6.13417],[106.80712,-6.13524],[106.8069,-6.13554],[106.80683,-6.13602],[106.79287,-6.13736],[106.79251,-6.1319],[106.7918,-6.12526],[106.79171,-6.11773],[106.78457,-6.11772],[106.78484,-6.11588],[106.78496,-6.1158],[106.79013,-6.11574]]]}},{"type":"Feature","properties":{"ref":"13","name":"Transjakarta BRT 13","colour":"#802B7C","network":"Transjakarta","operator":"PT Transportasi Jakarta","data_as_of":"2026-09-21"},"geometry":{"type":"MultiLineString","coordinates":[[[106.70922,-6.22283],[106.70991,-6.22182],[106.70924,-6.22136],[106.70981,-6.22058],[106.71025,-6.22087],[106.71039,-6.22121],[106.70928,-6.22293],[106.70897,-6.22424],[106.70905,-6.22463],[106.71106,-6.22486],[106.71251,-6.22616],[106.7154,-6.2273],[106.71658,-6.2276],[106.71855,-6.22772],[106.71955,-6.22813],[106.72047,-6.22887],[106.72115,-6.22918],[106.72422,-6.22981],[106.72467,-6.23026],[106.72551,-6.23023],[106.72593,-6.23052],[106.72639,-6.23135],[106.72718,-6.23129],[106.73825,-6.23394],[106.73868,-6.23417],[106.73899,-6.23482],[106.73934,-6.23507],[106.74179,-6.23547],[106.74339,-6.23636],[106.74512,-6.23645],[106.74653,-6.23629],[106.74864,-6.23651],[106.75331,-6.23668],[106.75444,-6.23639],[106.75598,-6.23568],[106.75745,-6.2362],[106.75872,-6.23734],[106.76247,-6.23766],[106.76338,-6.23813],[106.76412,-6.23777],[106.76512,-6.23775],[106.77443,-6.23814],[106.77543,-6.23736],[106.77591,-6.23731],[106.77633,-6.23749],[106.77704,-6.23821],[106.78024,-6.23831],[106.78108,-6.23869],[106.78292,-6.23886],[106.7848,-6.23931],[106.78624,-6.23946],[106.78758,-6.24071],[106.78924,-6.24102],[106.79022,-6.24181],[106.79164,-6.242],[106.79278,-6.24169],[106.79361,-6.24035],[106.79447,-6.2399],[106.80499,-6.23987],[106.80716,-6.23918],[106.812,-6.23897],[106.81381,-6.23873],[106.8154,-6.23892],[106.81753,-6.23887],[106.82055,-6.24059],[106.82426,-6.24002],[106.83031,-6.24012],[106.83143,-6.2399],[106.83156,-6.24008],[106.83123,-6.24021],[106.82804,-6.24019],[106.82746,-6.24005],[106.82426,-6.24002],[106.82055,-6.24059],[106.81753,-6.23887],[106.81695,-6.2388],[106.81567,-6.23897],[106.81381,-6.23873],[106.80684,-6.23927],[106.80499,-6.23987],[106.79447,-6.2399],[106.79361,-6.24035],[106.7927,-6.24174],[106.79181,-6.24199],[106.79105,-6.24198],[106.79014,-6.24179],[106.78924,-6.24102],[106.78758,-6.24071],[106.78624,-6.23946],[106.78506,-6.23942],[106.78316,-6.2389],[106.78108,-6.23869],[106.78006,-6.23829],[106.77732,-6.23835],[106.77633,-6.23749],[106.77591,-6.23731],[106.77543,-6.23736],[106.77443,-6.23814],[106.76431,-6.23775],[106.76338,-6.23813],[106.76247,-6.23766],[106.75872,-6.23734],[106.75745,-6.2362],[106.75598,-6.23568],[106.7556,-6.23575],[106.75461,-6.23635],[106.75301,-6.23674],[106.74642,-6.23634],[106.74512,-6.2365],[106.74326,-6.23641],[106.74176,-6.23553],[106.73928,-6.23508],[106.73888,-6.23477],[106.73861,-6.2342],[106.73824,-6.23401],[106.72714,-6.23136],[106.72586,-6.23155],[106.72515,-6.23146],[106.72485,-6.2312],[106.72454,-6.23039],[106.72337,-6.23044],[106.7235,-6.22973],[106.72111,-6.22925],[106.72045,-6.22895],[106.71953,-6.22822],[106.71847,-6.22778],[106.71655,-6.22768],[106.71465,-6.2271],[106.71242,-6.22619],[106.71104,-6.22494],[106.70886,-6.22472],[106.70922,-6.22283]]]}},{"type":"Feature","properties":{"ref":"14","name":"Transjakarta BRT 14","colour":"#ED882E","network":"Transjakarta","operator":"Transjakarta","data_as_of":"2026-09-21"},"geometry":{"type":"MultiLineString","coordinates":[[[106.84262,-6.17823],[106.84537,-6.17514],[106.85189,-6.17448],[106.85239,-6.16465],[106.85292,-6.16356],[106.85231,-6.16307],[106.85215,-6.16269],[106.84812,-6.14192],[106.84605,-6.14217],[106.84533,-6.14245],[106.84367,-6.14544],[106.84277,-6.14632],[106.84181,-6.14677],[106.83824,-6.14788],[106.83834,-6.14846],[106.8454,-6.15346],[106.85535,-6.15193],[106.85651,-6.15167],[106.85677,-6.15147],[106.85837,-6.14879],[106.85493,-6.12988],[106.85482,-6.12745],[106.85527,-6.12692],[106.85826,-6.12612],[106.85539,-6.12717],[106.85505,-6.12759],[106.85496,-6.12833],[106.85504,-6.12984],[106.85853,-6.14885],[106.85674,-6.15167],[106.85628,-6.15207],[106.85264,-6.15249],[106.85097,-6.15285],[106.85068,-6.15316],[106.85237,-6.1629],[106.85322,-6.1637],[106.85265,-6.16476],[106.85219,-6.17464],[106.84547,-6.1752],[106.84467,-6.17604],[106.84369,-6.17749],[106.8425,-6.17845],[106.84214,-6.17851],[106.83809,-6.17379],[106.83699,-6.17105],[106.83965,-6.16979],[106.8401,-6.16972],[106.84221,-6.17831],[106.84235,-6.17841],[106.84262,-6.17823]]]}},{"type":"Feature","properties":{"name":"Ancol","network":"Transjakarta","lines":["5"]},"geometry":{"type":"Point","coordinates":[106.83054,-6.12753]}},{"type":"Feature","properties":{"name":"Arteri","network":"Transjakarta","lines":["8"]},"geometry":{"type":"Point","coordinates":[106.77758,-6.21839]}},{"type":"Feature","properties":{"name":"ASEAN","network":"Transjakarta","lines":["1"]},"geometry":{"type":"Point","coordinates":[106.7991,-6.23992]}},{"type":"Feature","properties":{"name":"Balai Kota","network":"Transjakarta","lines":["2"]},"geometry":{"type":"Point","coordinates":[106.82637,-6.1805]}},{"type":"Feature","properties":{"name":"Bali Mester","network":"Transjakarta","lines":["5"]},"geometry":{"type":"Point","coordinates":[106.86632,-6.21573]}},{"type":"Feature","properties":{"name":"Bandengan","network":"Transjakarta","lines":["12"]},"geometry":{"type":"Point","coordinates":[106.80352,-6.1363]}},{"type":"Feature","properties":{"name":"Bendungan Hilir","network":"Transjakarta","lines":["1"]},"geometry":{"type":"Point","coordinates":[106.81538,-6.21708]}},{"type":"Feature","properties":{"name":"Bermis","network":"Transjakarta","lines":["2"]},"geometry":{"type":"Point","coordinates":[106.89855,-6.17819]}},{"type":"Feature","properties":{"name":"Bidara Cina","network":"Transjakarta","lines":["7"]},"geometry":{"type":"Point","coordinates":[106.86723,-6.22976]}},{"type":"Feature","properties":{"name":"Blok M","network":"Transjakarta","lines":["1"]},"geometry":{"type":"Point","coordinates":[106.802,-6.24331]}},{"type":"Feature","properties":{"name":"Buaran","network":"Transjakarta","lines":["11"]},"geometry":{"type":"Point","coordinates":[106.91772,-6.21515]}},{"type":"Feature","properties":{"name":"Buncit Indah","network":"Transjakarta","lines":["6"]},"geometry":{"type":"Point","coordinates":[106.83031,-6.27432]}},{"type":"Feature","properties":{"name":"Bundaran HI ASTRA","network":"Transjakarta","lines":["1"]},"geometry":{"type":"Point","coordinates":[106.82303,-6.19344]}},{"type":"Feature","properties":{"name":"Bundaran Senayan","network":"Transjakarta","lines":["1"]},"geometry":{"type":"Point","coordinates":[106.80098,-6.22788]}},{"type":"Feature","properties":{"name":"Bungur","network":"Transjakarta","lines":["8"]},"geometry":{"type":"Point","coordinates":[106.78165,-6.25267]}},{"type":"Feature","properties":{"name":"Cawang","network":"Transjakarta","lines":["7","9"]},"geometry":{"type":"Point","coordinates":[106.87127,-6.2459]}},{"type":"Feature","properties":{"name":"Cawang Baru","network":"Transjakarta","lines":["7"]},"geometry":{"type":"Point","coordinates":[106.86877,-6.24364]}},{"type":"Feature","properties":{"name":"Cawang Cililitan","network":"Transjakarta","lines":["7","10"]},"geometry":{"type":"Point","coordinates":[106.87,-6.25774]}},{"type":"Feature","properties":{"name":"Cawang Sentral","network":"Transjakarta","lines":["7","9","10"]},"geometry":{"type":"Point","coordinates":[106.87352,-6.25049]}},{"type":"Feature","properties":{"name":"Cempaka Baru","network":"Transjakarta","lines":["2"]},"geometry":{"type":"Point","coordinates":[106.86661,-6.17039]}},{"type":"Feature","properties":{"name":"Cempaka Mas","network":"Transjakarta","lines":["2"]},"geometry":{"type":"Point","coordinates":[106.87596,-6.16656]}},{"type":"Feature","properties":{"name":"Cempaka Putih","network":"Transjakarta","lines":["10"]},"geometry":{"type":"Point","coordinates":[106.87647,-6.17416]}},{"type":"Feature","properties":{"name":"Cikoko Arah Barat","network":"Transjakarta","lines":["9"]},"geometry":{"type":"Point","coordinates":[106.85809,-6.24333]}},{"type":"Feature","properties":{"name":"Cikoko Arah Timur","network":"Transjakarta","lines":["9"]},"geometry":{"type":"Point","coordinates":[106.85809,-6.24303]}},{"type":"Feature","properties":{"name":"Ciledug","network":"Transjakarta","lines":["13"]},"geometry":{"type":"Point","coordinates":[106.70905,-6.22364]}},{"type":"Feature","properties":{"name":"Ciliitan","network":"Transjakarta","lines":["7","10"]},"geometry":{"type":"Point","coordinates":[106.86641,-6.26242]}},{"type":"Feature","properties":{"name":"Ciliwung Arah Barat","network":"Transjakarta","lines":["9"]},"geometry":{"type":"Point","coordinates":[106.86357,-6.24327]}},{"type":"Feature","properties":{"name":"Ciliwung Arah Timur","network":"Transjakarta","lines":["9"]},"geometry":{"type":"Point","coordinates":[106.86353,-6.24299]}},{"type":"Feature","properties":{"name":"Cipinang","network":"Transjakarta","lines":["11"]},"geometry":{"type":"Point","coordinates":[106.88948,-6.21378]}},{"type":"Feature","properties":{"name":"Cipulir","network":"Transjakarta","lines":["13"]},"geometry":{"type":"Point","coordinates":[106.76534,-6.23781]}},{"type":"Feature","properties":{"name":"CSW 1","network":"Transjakarta","lines":["13"]},"geometry":{"type":"Point","coordinates":[106.79844,-6.23988]}},{"type":"Feature","properties":{"name":"Damai","network":"Transjakarta","lines":["3","8"]},"geometry":{"type":"Point","coordinates":[106.77511,-6.16334]}},{"type":"Feature","properties":{"name":"Danau Agung","network":"Transjakarta","lines":["12","14"]},"geometry":{"type":"Point","coordinates":[106.85805,-6.14676]}},{"type":"Feature","properties":{"name":"Danau Sunter","network":"Transjakarta","lines":["12","14"]},"geometry":{"type":"Point","coordinates":[106.857,-6.14099]}},{"type":"Feature","properties":{"name":"Denpasar Arah Barat","network":"Transjakarta","lines":["9"]},"geometry":{"type":"Point","coordinates":[106.8219,-6.23331]}},{"type":"Feature","properties":{"name":"Denpasar Arah Timur","network":"Transjakarta","lines":["9"]},"geometry":{"type":"Point","coordinates":[106.82172,-6.2327]}},{"type":"Feature","properties":{"name":"Dukuh Atas","network":"Transjakarta","lines":["1"]},"geometry":{"type":"Point","coordinates":[106.8223,-6.20524]}},{"type":"Feature","properties":{"name":"Duren Tiga","network":"Transjakarta","lines":["6"]},"geometry":{"type":"Point","coordinates":[106.827,-6.25237]}},{"type":"Feature","properties":{"name":"Duri Kepa","network":"Transjakarta","lines":["8"]},"geometry":{"type":"Point","coordinates":[106.76843,-6.18527]}},{"type":"Feature","properties":{"name":"Flyover Cipinang","network":"Transjakarta","lines":["11"]},"geometry":{"type":"Point","coordinates":[106.88238,-6.21462]}},{"type":"Feature","properties":{"name":"Flyover Jatinegara Arah Barat dan Timur","network":"Transjakarta","lines":["11"]},"geometry":{"type":"Point","coordinates":[106.87357,-6.21516]}},{"type":"Feature","properties":{"name":"Flyover Jatinegara Arah Selatan","network":"Transjakarta","lines":["10"]},"geometry":{"type":"Point","coordinates":[106.87436,-6.21555]}},{"type":"Feature","properties":{"name":"Flyover Jatinegara Arah Utara","network":"Transjakarta","lines":["10"]},"geometry":{"type":"Point","coordinates":[106.87409,-6.21556]}},{"type":"Feature","properties":{"name":"Flyover Kuningan","network":"Transjakarta","lines":["6"]},"geometry":{"type":"Point","coordinates":[106.82768,-6.20284]}},{"type":"Feature","properties":{"name":"Flyover Pondok Kopi","network":"Transjakarta","lines":["11"]},"geometry":{"type":"Point","coordinates":[106.93051,-6.2167]}},{"type":"Feature","properties":{"name":"Flyover Pramuka","network":"Transjakarta","lines":["4"]},"geometry":{"type":"Point","coordinates":[106.85449,-6.1989]}},{"type":"Feature","properties":{"name":"Flyover Raya Bogor","network":"Transjakarta","lines":["7"]},"geometry":{"type":"Point","coordinates":[106.86575,-6.30653]}},{"type":"Feature","properties":{"name":"Galunggung","network":"Transjakarta","lines":["4","6"]},"geometry":{"type":"Point","coordinates":[106.8234,-6.2044]}},{"type":"Feature","properties":{"name":"Galur","network":"Transjakarta","lines":["2"]},"geometry":{"type":"Point","coordinates":[106.85472,-6.17442]}},{"type":"Feature","properties":{"name":"Gambir","network":"Transjakarta","lines":["2"]},"geometry":{"type":"Point","coordinates":[106.83038,-6.1746]}},{"type":"Feature","properties":{"name":"Gambir 2","network":"Transjakarta","lines":["2"]},"geometry":{"type":"Point","coordinates":[106.83108,-6.17892]}},{"type":"Feature","properties":{"name":"Gedong Panjang","network":"Transjakarta","lines":["12"]},"geometry":{"type":"Point","coordinates":[106.80596,-6.13258]}},{"type":"Feature","properties":{"name":"Gelanggang Remaja","network":"Transjakarta","lines":["7"]},"geometry":{"type":"Point","coordinates":[106.86795,-6.23543]}},{"type":"Feature","properties":{"name":"Gerbang Pemuda Arah Barat","network":"Transjakarta","lines":["9"]},"geometry":{"type":"Point","coordinates":[106.80837,-6.21385]}},{"type":"Feature","properties":{"name":"Gerbang Pemuda Arah Timur","network":"Transjakarta","lines":["9"]},"geometry":{"type":"Point","coordinates":[106.80902,-6.2142]}},{"type":"Feature","properties":{"name":"Glodok","network":"Transjakarta","lines":["1"]},"geometry":{"type":"Point","coordinates":[106.81517,-6.14341]}},{"type":"Feature","properties":{"name":"Grogol","network":"Transjakarta","lines":["3"]},"geometry":{"type":"Point","coordinates":[106.78957,-6.16683]}},{"type":"Feature","properties":{"name":"Grogol Reformasi","network":"Transjakarta","lines":["8","9"]},"geometry":{"type":"Point","coordinates":[106.78826,-6.16733]}},{"type":"Feature","properties":{"name":"Gunung Sahari","network":"Transjakarta","lines":["5","12"]},"geometry":{"type":"Point","coordinates":[106.83238,-6.1368]}},{"type":"Feature","properties":{"name":"Halim","network":"Transjakarta","lines":["10"]},"geometry":{"type":"Point","coordinates":[106.87811,-6.23906]}},{"type":"Feature","properties":{"name":"Halimun","network":"Transjakarta","lines":["4","6"]},"geometry":{"type":"Point","coordinates":[106.83336,-6.20512]}},{"type":"Feature","properties":{"name":"Harmoni Temporer","network":"Transjakarta","lines":["1"]},"geometry":{"type":"Point","coordinates":[106.81986,-6.16246]}},{"type":"Feature","properties":{"name":"Istiqlal","network":"Transjakarta","lines":["2"]},"geometry":{"type":"Point","coordinates":[106.83092,-6.17223]}},{"type":"Feature","properties":{"name":"Jaga Jakarta","network":"Transjakarta","lines":["5"]},"geometry":{"type":"Point","coordinates":[106.84202,-6.17811]}},{"type":"Feature","properties":{"name":"Jakarta International Stadium","network":"Transjakarta","lines":["14"]},"geometry":{"type":"Point","coordinates":[106.85556,-6.12677]}},{"type":"Feature","properties":{"name":"Jati Barat","network":"Transjakarta","lines":["6"]},"geometry":{"type":"Point","coordinates":[106.82363,-6.29102]}},{"type":"Feature","properties":{"name":"Jatinegara","network":"Transjakarta","lines":["5","11"]},"geometry":{"type":"Point","coordinates":[106.86809,-6.22142]}},{"type":"Feature","properties":{"name":"Jatipadang","network":"Transjakarta","lines":["6"]},"geometry":{"type":"Point","coordinates":[106.82625,-6.28544]}},{"type":"Feature","properties":{"name":"Jelambar","network":"Transjakarta","lines":["3","8"]},"geometry":{"type":"Point","coordinates":[106.78655,-6.16654]}},{"type":"Feature","properties":{"name":"Jembatan Baru","network":"Transjakarta","lines":["3"]},"geometry":{"type":"Point","coordinates":[106.73039,-6.15479]}},{"type":"Feature","properties":{"name":"Jembatan Besi","network":"Transjakarta","lines":["9"]},"geometry":{"type":"Point","coordinates":[106.79494,-6.152]}},{"type":"Feature","properties":{"name":"Jembatan Dua","network":"Transjakarta","lines":["9"]},"geometry":{"type":"Point","coordinates":[106.79352,-6.14327]}},{"type":"Feature","properties":{"name":"Jembatan Gantung","network":"Transjakarta","lines":["3"]},"geometry":{"type":"Point","coordinates":[106.74935,-6.15547]}},{"type":"Feature","properties":{"name":"Jembatan Item","network":"Transjakarta","lines":["14"]},"geometry":{"type":"Point","coordinates":[106.85518,-6.13093]}},{"type":"Feature","properties":{"name":"Jembatan Merah","network":"Transjakarta","lines":["5","12"]},"geometry":{"type":"Point","coordinates":[106.83428,-6.14674]}},{"type":"Feature","properties":{"name":"Jembatan Tiga","network":"Transjakarta","lines":["9"]},"geometry":{"type":"Point","coordinates":[106.79272,-6.13341]}},{"type":"Feature","properties":{"name":"JIEXPO Kemayoran","network":"Transjakarta","lines":["14"]},"geometry":{"type":"Point","coordinates":[106.84866,-6.14484]}},{"type":"Feature","properties":{"name":"JORR","network":"Transjakarta","lines":["13"]},"geometry":{"type":"Point","coordinates":[106.75481,-6.2362]}},{"type":"Feature","properties":{"name":"Juanda","network":"Transjakarta","lines":["2","8"]},"geometry":{"type":"Point","coordinates":[106.83039,-6.16811]}},{"type":"Feature","properties":{"name":"Kali Besar","network":"Transjakarta","lines":["1","12"]},"geometry":{"type":"Point","coordinates":[106.81145,-6.13533]}},{"type":"Feature","properties":{"name":"Kali Grogol Arah Selatan","network":"Transjakarta","lines":["9"]},"geometry":{"type":"Point","coordinates":[106.79096,-6.16049]}},{"type":"Feature","properties":{"name":"Kali Grogol Arah Utara","network":"Transjakarta","lines":["9"]},"geometry":{"type":"Point","coordinates":[106.79041,-6.16106]}},{"type":"Feature","properties":{"name":"Kalideres","network":"Transjakarta","lines":["3"]},"geometry":{"type":"Point","coordinates":[106.70585,-6.15452]}},{"type":"Feature","properties":{"name":"Kampung Melayu","network":"Transjakarta","lines":["5","7","11"]},"geometry":{"type":"Point","coordinates":[106.86691,-6.22464]}},{"type":"Feature","properties":{"name":"Kampung Rambutan","network":"Transjakarta","lines":["7"]},"geometry":{"type":"Point","coordinates":[106.88169,-6.30922]}},{"type":"Feature","properties":{"name":"Kampung Sumur","network":"Transjakarta","lines":["11"]},"geometry":{"type":"Point","coordinates":[106.91189,-6.21441]}},{"type":"Feature","properties":{"name":"Karet","network":"Transjakarta","lines":["1"]},"geometry":{"type":"Point","coordinates":[106.82006,-6.21242]}},{"type":"Feature","properties":{"name":"Karet Kuningan","network":"Transjakarta","lines":["6"]},"geometry":{"type":"Point","coordinates":[106.83078,-6.21681]}},{"type":"Feature","properties":{"name":"Kayu Jati","network":"Transjakarta","lines":["4"]},"geometry":{"type":"Point","coordinates":[106.88369,-6.19326]}},{"type":"Feature","properties":{"name":"Kayu Putih Rawasari","network":"Transjakarta","lines":["10"]},"geometry":{"type":"Point","coordinates":[106.87542,-6.18748]}},{"type":"Feature","properties":{"name":"Kebayoran","network":"Transjakarta","lines":["8"]},"geometry":{"type":"Point","coordinates":[106.78323,-6.2384]}},{"type":"Feature","properties":{"name":"Kebayoran Lama","network":"Transjakarta","lines":["13"]},"geometry":{"type":"Point","coordinates":[106.77759,-6.23833]}},{"type":"Feature","properties":{"name":"Kebon Jeruk","network":"Transjakarta","lines":["8"]},"geometry":{"type":"Point","coordinates":[106.76888,-6.1943]}},{"type":"Feature","properties":{"name":"Kebon Nanas","network":"Transjakarta","lines":["10"]},"geometry":{"type":"Point","coordinates":[106.87639,-6.23152]}},{"type":"Feature","properties":{"name":"Kebon Sirih Arah Selatan","network":"Transjakarta","lines":["1"]},"geometry":{"type":"Point","coordinates":[106.82332,-6.18471]}},{"type":"Feature","properties":{"name":"Kebon Sirih Arah Utara","network":"Transjakarta","lines":["1"]},"geometry":{"type":"Point","coordinates":[106.82274,-6.1826]}},{"type":"Feature","properties":{"name":"Kedoya","network":"Transjakarta","lines":["8"]},"geometry":{"type":"Point","coordinates":[106.76304,-6.16445]}},{"type":"Feature","properties":{"name":"Kedoya Panjang","network":"Transjakarta","lines":["8"]},"geometry":{"type":"Point","coordinates":[106.76588,-6.1745]}},{"type":"Feature","properties":{"name":"Kejaksaan Agung","network":"Transjakarta","lines":["1"]},"geometry":{"type":"Point","coordinates":[106.79845,-6.24045]}},{"type":"Feature","properties":{"name":"Kelapa Dua Sasak","network":"Transjakarta","lines":["8"]},"geometry":{"type":"Point","coordinates":[106.76953,-6.20555]}},{"type":"Feature","properties":{"name":"Kemanggisan Arah Selatan","network":"Transjakarta","lines":["9"]},"geometry":{"type":"Point","coordinates":[106.79726,-6.18984]}},{"type":"Feature","properties":{"name":"Kemanggisan Arah Utara","network":"Transjakarta","lines":["9"]},"geometry":{"type":"Point","coordinates":[106.79698,-6.18984]}},{"type":"Feature","properties":{"name":"Kemayoran","network":"Transjakarta","lines":["14"]},"geometry":{"type":"Point","coordinates":[106.85136,-6.15792]}},{"type":"Feature","properties":{"name":"Kesatrian","network":"Transjakarta","lines":["5"]},"geometry":{"type":"Point","coordinates":[106.85929,-6.20855]}},{"type":"Feature","properties":{"name":"Klender","network":"Transjakarta","lines":["11"]},"geometry":{"type":"Point","coordinates":[106.90302,-6.21359]}},{"type":"Feature","properties":{"name":"Kodamar","network":"Transjakarta","lines":["10"]},"geometry":{"type":"Point","coordinates":[106.88172,-6.16203]}},{"type":"Feature","properties":{"name":"Koja","network":"Transjakarta","lines":["10","12"]},"geometry":{"type":"Point","coordinates":[106.89307,-6.11409]}},{"type":"Feature","properties":{"name":"Kota","network":"Transjakarta","lines":["1","12"]},"geometry":{"type":"Point","coordinates":[106.81507,-6.13686]}},{"type":"Feature","properties":{"name":"Kota Bambu Arah Selatan","network":"Transjakarta","lines":["9"]},"geometry":{"type":"Point","coordinates":[106.79709,-6.18527]}},{"type":"Feature","properties":{"name":"Kota Bambu Arah Utara","network":"Transjakarta","lines":["9"]},"geometry":{"type":"Point","coordinates":[106.79679,-6.18444]}},{"type":"Feature","properties":{"name":"Kramat Jati","network":"Transjakarta","lines":["7"]},"geometry":{"type":"Point","coordinates":[106.86663,-6.26882]}},{"type":"Feature","properties":{"name":"Kramat Sentiong","network":"Transjakarta","lines":["5"]},"geometry":{"type":"Point","coordinates":[106.84595,-6.18795]}},{"type":"Feature","properties":{"name":"Kuningan","network":"Transjakarta","lines":["6"]},"geometry":{"type":"Point","coordinates":[106.83319,-6.22865]}},{"type":"Feature","properties":{"name":"Kuningan Madya","network":"Transjakarta","lines":["6"]},"geometry":{"type":"Point","coordinates":[106.83046,-6.21317]}},{"type":"Feature","properties":{"name":"Kwitang","network":"Transjakarta","lines":["2"]},"geometry":{"type":"Point","coordinates":[106.83843,-6.18121]}},{"type":"Feature","properties":{"name":"Landasan Pacu","network":"Transjakarta","lines":["12","14"]},"geometry":{"type":"Point","coordinates":[106.85425,-6.15217]}},{"type":"Feature","properties":{"name":"Lapangan Banteng","network":"Transjakarta","lines":["5"]},"geometry":{"type":"Point","coordinates":[106.83907,-6.16602]}},{"type":"Feature","properties":{"name":"Layur","network":"Transjakarta","lines":["4"]},"geometry":{"type":"Point","coordinates":[106.8991,-6.19353]}},{"type":"Feature","properties":{"name":"Lebak Bulus","network":"Transjakarta","lines":["8"]},"geometry":{"type":"Point","coordinates":[106.77401,-6.28942]}},{"type":"Feature","properties":{"name":"M.H. Thamrin","network":"Transjakarta","lines":["1"]},"geometry":{"type":"Point","coordinates":[106.82302,-6.18807]}},{"type":"Feature","properties":{"name":"Makasar","network":"Transjakarta","lines":["9"]},"geometry":{"type":"Point","coordinates":[106.88116,-6.29014]}},{"type":"Feature","properties":{"name":"Mambo","network":"Transjakarta","lines":["10","12"]},"geometry":{"type":"Point","coordinates":[106.89246,-6.11012]}},{"type":"Feature","properties":{"name":"Mampang Prapatan","network":"Transjakarta","lines":["6"]},"geometry":{"type":"Point","coordinates":[106.82573,-6.24263]}},{"type":"Feature","properties":{"name":"Mangga Besar Temporer","network":"Transjakarta","lines":["1"]},"geometry":{"type":"Point","coordinates":[106.81747,-6.15322]}},{"type":"Feature","properties":{"name":"Mangga Dua","network":"Transjakarta","lines":["12"]},"geometry":{"type":"Point","coordinates":[106.82597,-6.13617]}},{"type":"Feature","properties":{"name":"Mangga Dua Raya","network":"Transjakarta","lines":["12"]},"geometry":{"type":"Point","coordinates":[106.81792,-6.1376]}},{"type":"Feature","properties":{"name":"Manggarai","network":"Transjakarta","lines":["4"]},"geometry":{"type":"Point","coordinates":[106.84743,-6.20887]}},{"type":"Feature","properties":{"name":"Masjid Agung","network":"Transjakarta","lines":["1"]},"geometry":{"type":"Point","coordinates":[106.79845,-6.23643]}},{"type":"Feature","properties":{"name":"Matraman","network":"Transjakarta","lines":["5"]},"geometry":{"type":"Point","coordinates":[106.85445,-6.2]}},{"type":"Feature","properties":{"name":"Matraman Baru","network":"Transjakarta","lines":["5"]},"geometry":{"type":"Point","coordinates":[106.86123,-6.21298]}},{"type":"Feature","properties":{"name":"Mayestik","network":"Transjakarta","lines":["13"]},"geometry":{"type":"Point","coordinates":[106.79073,-6.24189]}},{"type":"Feature","properties":{"name":"Monumen Nasional","network":"Transjakarta","lines":["1","2","3"]},"geometry":{"type":"Point","coordinates":[106.82289,-6.17618]}},{"type":"Feature","properties":{"name":"Museum Sejarah Jakarta","network":"Transjakarta","lines":["1","12"]},"geometry":{"type":"Point","coordinates":[106.81213,-6.13392]}},{"type":"Feature","properties":{"name":"Pademangan","network":"Transjakarta","lines":["5"]},"geometry":{"type":"Point","coordinates":[106.83166,-6.13373]}},{"type":"Feature","properties":{"name":"Pakin","network":"Transjakarta","lines":["12"]},"geometry":{"type":"Point","coordinates":[106.80462,-6.12745]}},{"type":"Feature","properties":{"name":"Pal Putih","network":"Transjakarta","lines":["5"]},"geometry":{"type":"Point","coordinates":[106.84401,-6.18461]}},{"type":"Feature","properties":{"name":"Pancoran Arah Barat","network":"Transjakarta","lines":["9"]},"geometry":{"type":"Point","coordinates":[106.83728,-6.24167]}},{"type":"Feature","properties":{"name":"Pancoran Arah Timur","network":"Transjakarta","lines":["9"]},"geometry":{"type":"Point","coordinates":[106.83805,-6.24155]}},{"type":"Feature","properties":{"name":"Pancoran Tugu Arah Barat","network":"Transjakarta","lines":["9"]},"geometry":{"type":"Point","coordinates":[106.84383,-6.2435]}},{"type":"Feature","properties":{"name":"Pancoran Tugu Arah Timur","network":"Transjakarta","lines":["9"]},"geometry":{"type":"Point","coordinates":[106.84397,-6.2431]}},{"type":"Feature","properties":{"name":"Pasar Baru","network":"Transjakarta","lines":["8"]},"geometry":{"type":"Point","coordinates":[106.83481,-6.16607]}},{"type":"Feature","properties":{"name":"Pasar Baru Timur","network":"Transjakarta","lines":["5"]},"geometry":{"type":"Point","coordinates":[106.83814,-6.16233]}},{"type":"Feature","properties":{"name":"Pasar Cempaka Putih","network":"Transjakarta","lines":["2"]},"geometry":{"type":"Point","coordinates":[106.86247,-6.17232]}},{"type":"Feature","properties":{"name":"Pasar Enjo","network":"Transjakarta","lines":["11"]},"geometry":{"type":"Point","coordinates":[106.87836,-6.21486]}},{"type":"Feature","properties":{"name":"Pasar Genjing","network":"Transjakarta","lines":["4"]},"geometry":{"type":"Point","coordinates":[106.86092,-6.19445]}},{"type":"Feature","properties":{"name":"Pasar Induk","network":"Transjakarta","lines":["7"]},"geometry":{"type":"Point","coordinates":[106.87205,-6.29422]}},{"type":"Feature","properties":{"name":"Pasar Pulogadung","network":"Transjakarta","lines":["4"]},"geometry":{"type":"Point","coordinates":[106.90593,-6.18741]}},{"type":"Feature","properties":{"name":"Pasar Rumput","network":"Transjakarta","lines":["4"]},"geometry":{"type":"Point","coordinates":[106.84112,-6.20712]}},{"type":"Feature","properties":{"name":"Pasar Santa","network":"Transjakarta","lines":["13"]},"geometry":{"type":"Point","coordinates":[106.80776,-6.23919]}},{"type":"Feature","properties":{"name":"Paseban","network":"Transjakarta","lines":["5"]},"geometry":{"type":"Point","coordinates":[106.85103,-6.19676]}},{"type":"Feature","properties":{"name":"Patra Kuningan","network":"Transjakarta","lines":["6"]},"geometry":{"type":"Point","coordinates":[106.83204,-6.2327]}},{"type":"Feature","properties":{"name":"Pecenongan","network":"Transjakarta","lines":["2","8"]},"geometry":{"type":"Point","coordinates":[106.82822,-6.16771]}},{"type":"Feature","properties":{"name":"Pedati Prumpung","network":"Transjakarta","lines":["10"]},"geometry":{"type":"Point","coordinates":[106.87443,-6.22013]}},{"type":"Feature","properties":{"name":"Pedongkelan","network":"Transjakarta","lines":["2"]},"geometry":{"type":"Point","coordinates":[106.88253,-6.16799]}},{"type":"Feature","properties":{"name":"Pejambon","network":"Transjakarta","lines":["2"]},"geometry":{"type":"Point","coordinates":[106.83474,-6.17353]}},{"type":"Feature","properties":{"name":"Pejaten","network":"Transjakarta","lines":["6"]},"geometry":{"type":"Point","coordinates":[106.82975,-6.27841]}},{"type":"Feature","properties":{"name":"Pemuda Merdeka","network":"Transjakarta","lines":["4"]},"geometry":{"type":"Point","coordinates":[106.90486,-6.19241]}},{"type":"Feature","properties":{"name":"Pemuda Pramuka","network":"Transjakarta","lines":["10"]},"geometry":{"type":"Point","coordinates":[106.87493,-6.19302]}},{"type":"Feature","properties":{"name":"Pemuda Rawamangun","network":"Transjakarta","lines":["4"]},"geometry":{"type":"Point","coordinates":[106.89174,-6.19349]}},{"type":"Feature","properties":{"name":"Penggilingan","network":"Transjakarta","lines":["11"]},"geometry":{"type":"Point","coordinates":[106.93964,-6.2139]}},{"type":"Feature","properties":{"name":"Penjaringan","network":"Transjakarta","lines":["9","12"]},"geometry":{"type":"Point","coordinates":[106.79204,-6.12625]}},{"type":"Feature","properties":{"name":"Perintis Kemerdekaan","network":"Transjakarta","lines":["2"]},"geometry":{"type":"Point","coordinates":[106.88863,-6.17171]}},{"type":"Feature","properties":{"name":"Permata Hijau","network":"Transjakarta","lines":["8"]},"geometry":{"type":"Point","coordinates":[106.78322,-6.22142]}},{"type":"Feature","properties":{"name":"Pesakih","network":"Transjakarta","lines":["3"]},"geometry":{"type":"Point","coordinates":[106.71523,-6.15481]}},{"type":"Feature","properties":{"name":"Petamburan","network":"Transjakarta","lines":["9"]},"geometry":{"type":"Point","coordinates":[106.79986,-6.20202]}},{"type":"Feature","properties":{"name":"Petojo","network":"Transjakarta","lines":["3","8"]},"geometry":{"type":"Point","coordinates":[106.817,-6.16999]}},{"type":"Feature","properties":{"name":"Petukangan D'MASIV","network":"Transjakarta","lines":["13"]},"geometry":{"type":"Point","coordinates":[106.74777,-6.23645]}},{"type":"Feature","properties":{"name":"PGC","network":"Transjakarta","lines":["10"]},"geometry":{"type":"Point","coordinates":[106.86543,-6.26203]}},{"type":"Feature","properties":{"name":"Pinang Ranti","network":"Transjakarta","lines":["9"]},"geometry":{"type":"Point","coordinates":[106.88647,-6.29123]}},{"type":"Feature","properties":{"name":"Pisangan","network":"Transjakarta","lines":["10"]},"geometry":{"type":"Point","coordinates":[106.87378,-6.20548]}},{"type":"Feature","properties":{"name":"Pluit","network":"Transjakarta","lines":["9","12"]},"geometry":{"type":"Point","coordinates":[106.79082,-6.11579]}},{"type":"Feature","properties":{"name":"Pluit Selatan","network":"Transjakarta","lines":["12"]},"geometry":{"type":"Point","coordinates":[106.79971,-6.12527]}},{"type":"Feature","properties":{"name":"Plumpang","network":"Transjakarta","lines":["10","12"]},"geometry":{"type":"Point","coordinates":[106.89368,-6.12838]}},{"type":"Feature","properties":{"name":"Polda Metro Jaya","network":"Transjakarta","lines":["1"]},"geometry":{"type":"Point","coordinates":[106.81029,-6.22108]}},{"type":"Feature","properties":{"name":"Pondok Indah","network":"Transjakarta","lines":["8"]},"geometry":{"type":"Point","coordinates":[106.78366,-6.26722]}},{"type":"Feature","properties":{"name":"Pondok Pinang","network":"Transjakarta","lines":["8"]},"geometry":{"type":"Point","coordinates":[106.77207,-6.28214]}},{"type":"Feature","properties":{"name":"Pos Pengumben","network":"Transjakarta","lines":["8"]},"geometry":{"type":"Point","coordinates":[106.77225,-6.21293]}},{"type":"Feature","properties":{"name":"Pramuka Sari","network":"Transjakarta","lines":["4"]},"geometry":{"type":"Point","coordinates":[106.86857,-6.19224]}},{"type":"Feature","properties":{"name":"Pulo Gadung","network":"Transjakarta","lines":["2","4"]},"geometry":{"type":"Point","coordinates":[106.90889,-6.18318]}},{"type":"Feature","properties":{"name":"Pulo Mas","network":"Transjakarta","lines":["2"]},"geometry":{"type":"Point","coordinates":[106.89261,-6.17461]}},{"type":"Feature","properties":{"name":"Pulo Nangka","network":"Transjakarta","lines":["3"]},"geometry":{"type":"Point","coordinates":[106.73811,-6.15461]}},{"type":"Feature","properties":{"name":"Pulomas Bypass","network":"Transjakarta","lines":["10"]},"geometry":{"type":"Point","coordinates":[106.87602,-6.17691]}},{"type":"Feature","properties":{"name":"Puri Beta 1","network":"Transjakarta","lines":["13"]},"geometry":{"type":"Point","coordinates":[106.72602,-6.23054]}},{"type":"Feature","properties":{"name":"Puri Beta 2","network":"Transjakarta","lines":["13"]},"geometry":{"type":"Point","coordinates":[106.72374,-6.23048]}},{"type":"Feature","properties":{"name":"Ragunan","network":"Transjakarta","lines":["6"]},"geometry":{"type":"Point","coordinates":[106.81902,-6.30576]}},{"type":"Feature","properties":{"name":"Rasuna Said","network":"Transjakarta","lines":["6"]},"geometry":{"type":"Point","coordinates":[106.83228,-6.22175]}},{"type":"Feature","properties":{"name":"Rawa Barat","network":"Transjakarta","lines":["13"]},"geometry":{"type":"Point","coordinates":[106.8162,-6.2389]}},{"type":"Feature","properties":{"name":"Rawa Buaya","network":"Transjakarta","lines":["3"]},"geometry":{"type":"Point","coordinates":[106.72619,-6.1539]}},{"type":"Feature","properties":{"name":"Rawa Selatan","network":"Transjakarta","lines":["2"]},"geometry":{"type":"Point","coordinates":[106.8581,-6.17392]}},{"type":"Feature","properties":{"name":"Rawamangun","network":"Transjakarta","lines":["4"]},"geometry":{"type":"Point","coordinates":[106.88032,-6.19291]}},{"type":"Feature","properties":{"name":"Roxy","network":"Transjakarta","lines":["3"]},"geometry":{"type":"Point","coordinates":[106.79676,-6.16629]}},{"type":"Feature","properties":{"name":"RSPAD","network":"Transjakarta","lines":["2"]},"geometry":{"type":"Point","coordinates":[106.83679,-6.17549]}},{"type":"Feature","properties":{"name":"Salemba","network":"Transjakarta","lines":["5"]},"geometry":{"type":"Point","coordinates":[106.84892,-6.19336]}},{"type":"Feature","properties":{"name":"Sawah Besar Temporer","network":"Transjakarta","lines":["1"]},"geometry":{"type":"Point","coordinates":[106.81864,-6.15727]}},{"type":"Feature","properties":{"name":"Semanggi","network":"Transjakarta","lines":["9"]},"geometry":{"type":"Point","coordinates":[106.81317,-6.22054]}},{"type":"Feature","properties":{"name":"Senayan Bank Jakarta","network":"Transjakarta","lines":["1"]},"geometry":{"type":"Point","coordinates":[106.8057,-6.22429]}},{"type":"Feature","properties":{"name":"Senen Raya","network":"Transjakarta","lines":["2","14"]},"geometry":{"type":"Point","coordinates":[106.84022,-6.17623]}},{"type":"Feature","properties":{"name":"Senen Toyota Rangga","network":"Transjakarta","lines":["2","14"]},"geometry":{"type":"Point","coordinates":[106.84266,-6.17825]}},{"type":"Feature","properties":{"name":"Seskoal","network":"Transjakarta","lines":["13"]},"geometry":{"type":"Point","coordinates":[106.77118,-6.23803]}},{"type":"Feature","properties":{"name":"Setiabudi Integritas","network":"Transjakarta","lines":["6"]},"geometry":{"type":"Point","coordinates":[106.83022,-6.20924]}},{"type":"Feature","properties":{"name":"Simpang Buaran","network":"Transjakarta","lines":["11"]},"geometry":{"type":"Point","coordinates":[106.92435,-6.21598]}},{"type":"Feature","properties":{"name":"Simpang Cawang","network":"Transjakarta","lines":["10"]},"geometry":{"type":"Point","coordinates":[106.87599,-6.24474]}},{"type":"Feature","properties":{"name":"Simpang Cempaka","network":"Transjakarta","lines":["10"]},"geometry":{"type":"Point","coordinates":[106.87928,-6.16576]}},{"type":"Feature","properties":{"name":"Simpang Kuningan","network":"Transjakarta","lines":["9"]},"geometry":{"type":"Point","coordinates":[106.82803,-6.23729]}},{"type":"Feature","properties":{"name":"Simpang Pramuka","network":"Transjakarta","lines":["4"]},"geometry":{"type":"Point","coordinates":[106.87402,-6.19218]}},{"type":"Feature","properties":{"name":"Simpang Ragunan Ar-Raudhah","network":"Transjakarta","lines":["6"]},"geometry":{"type":"Point","coordinates":[106.82212,-6.29462]}},{"type":"Feature","properties":{"name":"Simprug","network":"Transjakarta","lines":["8"]},"geometry":{"type":"Point","coordinates":[106.78653,-6.2339]}},{"type":"Feature","properties":{"name":"Stasiun Jatinegara","network":"Transjakarta","lines":["11"]},"geometry":{"type":"Point","coordinates":[106.86936,-6.21543]}},{"type":"Feature","properties":{"name":"Stasiun Klender","network":"Transjakarta","lines":["11"]},"geometry":{"type":"Point","coordinates":[106.89867,-6.21354]}},{"type":"Feature","properties":{"name":"Sumur Batu","network":"Transjakarta","lines":["2"]},"geometry":{"type":"Point","coordinates":[106.87037,-6.16863]}},{"type":"Feature","properties":{"name":"Sumur Bor","network":"Transjakarta","lines":["3"]},"geometry":{"type":"Point","coordinates":[106.71934,-6.15304]}},{"type":"Feature","properties":{"name":"Sunter Boulevard Barat","network":"Transjakarta","lines":["12"]},"geometry":{"type":"Point","coordinates":[106.88899,-6.14962]}},{"type":"Feature","properties":{"name":"Sunter Karya","network":"Transjakarta","lines":["12"]},"geometry":{"type":"Point","coordinates":[106.87085,-6.1376]}},{"type":"Feature","properties":{"name":"Sunter Kelapa Gading","network":"Transjakarta","lines":["10","12"]},"geometry":{"type":"Point","coordinates":[106.89075,-6.14281]}},{"type":"Feature","properties":{"name":"Sunter Utara","network":"Transjakarta","lines":["12"]},"geometry":{"type":"Point","coordinates":[106.85914,-6.13975]}},{"type":"Feature","properties":{"name":"Swadarma ParagonCorp","network":"Transjakarta","lines":["13"]},"geometry":{"type":"Point","coordinates":[106.7606,-6.23753]}},{"type":"Feature","properties":{"name":"Taman Kota","network":"Transjakarta","lines":["3"]},"geometry":{"type":"Point","coordinates":[106.75787,-6.15715]}},{"type":"Feature","properties":{"name":"Taman Sari","network":"Transjakarta","lines":["1"]},"geometry":{"type":"Point","coordinates":[106.8167,-6.1493]}},{"type":"Feature","properties":{"name":"Tanah Kusir","network":"Transjakarta","lines":["8"]},"geometry":{"type":"Point","coordinates":[106.78169,-6.25697]}},{"type":"Feature","properties":{"name":"Tanah Merdeka Arah Barat","network":"Transjakarta","lines":["7"]},"geometry":{"type":"Point","coordinates":[106.87392,-6.30814]}},{"type":"Feature","properties":{"name":"Tanah Merdeka Arah Timur","network":"Transjakarta","lines":["7"]},"geometry":{"type":"Point","coordinates":[106.87393,-6.30785]}},{"type":"Feature","properties":{"name":"Tanah Tinggi","network":"Transjakarta","lines":["14"]},"geometry":{"type":"Point","coordinates":[106.85221,-6.17122]}},{"type":"Feature","properties":{"name":"Tanjung Duren Arah Selatan","network":"Transjakarta","lines":["8","9"]},"geometry":{"type":"Point","coordinates":[106.79308,-6.17583]}},{"type":"Feature","properties":{"name":"Tanjung Duren Arah Utara","network":"Transjakarta","lines":["8","9"]},"geometry":{"type":"Point","coordinates":[106.79218,-6.17549]}},{"type":"Feature","properties":{"name":"Tanjung Priok","network":"Transjakarta","lines":["10","12"]},"geometry":{"type":"Point","coordinates":[106.88213,-6.10958]}},{"type":"Feature","properties":{"name":"Tarakan","network":"Transjakarta","lines":["8"]},"geometry":{"type":"Point","coordinates":[106.81012,-6.17115]}},{"type":"Feature","properties":{"name":"Tebet Eco Park Arah Barat","network":"Transjakarta","lines":["9"]},"geometry":{"type":"Point","coordinates":[106.85211,-6.24333]}},{"type":"Feature","properties":{"name":"Tebet Eco Park Arah Timur","network":"Transjakarta","lines":["9"]},"geometry":{"type":"Point","coordinates":[106.85208,-6.24304]}},{"type":"Feature","properties":{"name":"Tegal Mampang","network":"Transjakarta","lines":["13"]},"geometry":{"type":"Point","coordinates":[106.83091,-6.24018]}},{"type":"Feature","properties":{"name":"Tegal Parang Arah Barat","network":"Transjakarta","lines":["9"]},"geometry":{"type":"Point","coordinates":[106.8302,-6.23882]}},{"type":"Feature","properties":{"name":"Tegal Parang Arah Timur","network":"Transjakarta","lines":["9"]},"geometry":{"type":"Point","coordinates":[106.83109,-6.23902]}},{"type":"Feature","properties":{"name":"Tegalan","network":"Transjakarta","lines":["5"]},"geometry":{"type":"Point","coordinates":[106.85717,-6.20311]}},{"type":"Feature","properties":{"name":"Terminal Pulogebang","network":"Transjakarta","lines":["11"]},"geometry":{"type":"Point","coordinates":[106.95322,-6.21336]}},{"type":"Feature","properties":{"name":"Tomang Raya","network":"Transjakarta","lines":["8"]},"geometry":{"type":"Point","coordinates":[106.80042,-6.17686]}},{"type":"Feature","properties":{"name":"Tosari","network":"Transjakarta","lines":["1"]},"geometry":{"type":"Point","coordinates":[106.8231,-6.19652]}},{"type":"Feature","properties":{"name":"Trikora","network":"Transjakarta","lines":["7"]},"geometry":{"type":"Point","coordinates":[106.86805,-6.30194]}},{"type":"Feature","properties":{"name":"Underpass Kuningan","network":"Transjakarta","lines":["6"]},"geometry":{"type":"Point","coordinates":[106.82879,-6.23493]}},{"type":"Feature","properties":{"name":"Underpass Lebak Bulus","network":"Transjakarta","lines":["8"]},"geometry":{"type":"Point","coordinates":[106.78,-6.28674]}},{"type":"Feature","properties":{"name":"Utan Kayu","network":"Transjakarta","lines":["4"]},"geometry":{"type":"Point","coordinates":[106.86458,-6.19274]}},{"type":"Feature","properties":{"name":"Utan Kayu Rawamangun","network":"Transjakarta","lines":["10"]},"geometry":{"type":"Point","coordinates":[106.87406,-6.19752]}},{"type":"Feature","properties":{"name":"Velbak","network":"Transjakarta","lines":["13"]},"geometry":{"type":"Point","coordinates":[106.7855,-6.23941]}},{"type":"Feature","properties":{"name":"Velodrome","network":"Transjakarta","lines":["4"]},"geometry":{"type":"Point","coordinates":[106.8883,-6.19346]}},{"type":"Feature","properties":{"name":"Walikota Jakarta Timur","network":"Transjakarta","lines":["11"]},"geometry":{"type":"Point","coordinates":[106.9454,-6.21251]}},{"type":"Feature","properties":{"name":"Walikota Jakarta Utara Arah Selatan","network":"Transjakarta","lines":["10","12"]},"geometry":{"type":"Point","coordinates":[106.89349,-6.11889]}},{"type":"Feature","properties":{"name":"Walikota Jakarta Utara Arah Utara","network":"Transjakarta","lines":["10","12"]},"geometry":{"type":"Point","coordinates":[106.89313,-6.11883]}},{"type":"Feature","properties":{"name":"Warung Buncit","network":"Transjakarta","lines":["6"]},"geometry":{"type":"Point","coordinates":[106.82811,-6.25698]}},{"type":"Feature","properties":{"name":"Warung Jati","network":"Transjakarta","lines":["6"]},"geometry":{"type":"Point","coordinates":[106.82978,-6.26234]}},{"type":"Feature","properties":{"name":"Widya Chandra Telkomsel Arah Barat","network":"Transjakarta","lines":["9"]},"geometry":{"type":"Point","coordinates":[106.81756,-6.22724]}},{"type":"Feature","properties":{"name":"Widya Chandra Telkomsel Arah Timur","network":"Transjakarta","lines":["9"]},"geometry":{"type":"Point","coordinates":[106.81752,-6.22668]}}],"properties":{"data_as_of":"2026-09-21","source":["https://www.openstreetmap.org/copyright"]}}
